DS_ID,GeoCode,Continent,Country,MacroRegion,Region,Province,DistrictUnit,PostCode
"CH011","CH011","Europe (non EU)","Switzerland","Switzerland","Region Lemanique","Vaud","",""
"CH012","CH012","Europe (non EU)","Switzerland","Switzerland","Region Lemanique","Valais","",""
"CH013","CH013","Europe (non EU)","Switzerland","Switzerland","Region Lemanique","Geneve","",""
"CH021","CH021","Europe (non EU)","Switzerland","Switzerland","Espace Mittelland","Bern","",""
"CH025","CH025","Europe (non EU)","Switzerland","Switzerland","Espace Mittelland","Jura","",""
"CH022","CH022","Europe (non EU)","Switzerland","Switzerland","Espace Mittelland","Freiburg","",""
"CH023","CH023","Europe (non EU)","Switzerland","Switzerland","Espace Mittelland","Solothurn","",""
"CH024","CH024","Europe (non EU)","Switzerland","Switzerland","Espace Mittelland","Neuchatel","",""
"CH031","CH031","Europe (non EU)","Switzerland","Switzerland","Nordwestschweiz","Basel-Stadt","",""
"CH032","CH032","Europe (non EU)","Switzerland","Switzerland","Nordwestschweiz","Basel-Landschaft","",""
"CH033","CH033","Europe (non EU)","Switzerland","Switzerland","Nordwestschweiz","Aargau","",""
"CH040","CH040","Europe (non EU)","Switzerland","Switzerland","Zurich","Zurich","",""
"CH051","CH051","Europe (non EU)","Switzerland","Switzerland","Ostschweiz","Glarus","",""
"CH054","CH054","Europe (non EU)","Switzerland","Switzerland","Ostschweiz","Appenzell Innerrhoden","",""
"CH055","CH055","Europe (non EU)","Switzerland","Switzerland","Ostschweiz","St. Gallen","",""
"CH052","CH052","Europe (non EU)","Switzerland","Switzerland","Ostschweiz","Schaffhausen","",""
"CH053","CH053","Europe (non EU)","Switzerland","Switzerland","Ostschweiz","Appenzell Ausserrhoden","",""
"CH056","CH056","Europe (non EU)","Switzerland","Switzerland","Ostschweiz","Graubunden","",""
"CH057","CH057","Europe (non EU)","Switzerland","Switzerland","Ostschweiz","Thurgau","",""
"CH066","CH066","Europe (non EU)","Switzerland","Switzerland","Zentralschweiz","Zug","",""
"CH062","CH062","Europe (non EU)","Switzerland","Switzerland","Zentralschweiz","Uri","",""
"CH061","CH061","Europe (non EU)","Switzerland","Switzerland","Zentralschweiz","Luzern","",""
"CH063","CH063","Europe (non EU)","Switzerland","Switzerland","Zentralschweiz","Schwyz","",""
"CH064","CH064","Europe (non EU)","Switzerland","Switzerland","Zentralschweiz","Obwalden","",""
"CH065","CH065","Europe (non EU)","Switzerland","Switzerland","Zentralschweiz","Nidwalden","",""
"CH070","CH070","Europe (non EU)","Switzerland","Switzerland","Ticino","Ticino","",""
"MK006","MK006","Europe (non EU)","F.Y.R. of Macedonia (FYROM)","F.Y.R. of Macedonia (FYROM)","F.Y.R. of Macedonia (FYROM)","Pološki","",""
"MK001","MK001","Europe (non EU)","F.Y.R. of Macedonia (FYROM)","F.Y.R. of Macedonia (FYROM)","F.Y.R. of Macedonia (FYROM)","Vardarski","",""
"MK007","MK007","Europe (non EU)","F.Y.R. of Macedonia (FYROM)","F.Y.R. of Macedonia (FYROM)","F.Y.R. of Macedonia (FYROM)","Severoistočen","",""
"MK008","MK008","Europe (non EU)","F.Y.R. of Macedonia (FYROM)","F.Y.R. of Macedonia (FYROM)","F.Y.R. of Macedonia (FYROM)","Skopski","",""
"MK004","MK004","Europe (non EU)","F.Y.R. of Macedonia (FYROM)","F.Y.R. of Macedonia (FYROM)","F.Y.R. of Macedonia (FYROM)","Jugoistočen","",""
"MK005","MK005","Europe (non EU)","F.Y.R. of Macedonia (FYROM)","F.Y.R. of Macedonia (FYROM)","F.Y.R. of Macedonia (FYROM)","Pelagoniski","",""
"MK002","MK002","Europe (non EU)","F.Y.R. of Macedonia (FYROM)","F.Y.R. of Macedonia (FYROM)","F.Y.R. of Macedonia (FYROM)","Istočen","",""
"MK003","MK003","Europe (non EU)","F.Y.R. of Macedonia (FYROM)","F.Y.R. of Macedonia (FYROM)","F.Y.R. of Macedonia (FYROM)","Jugozapaden","",""
"NO011","NO011","Europe (non EU)","Norway","Norway","Oslo og Akershus","Oslo","",""
"NO012","NO012","Europe (non EU)","Norway","Norway","Oslo og Akershus","Akershus","",""
"NO021","NO021","Europe (non EU)","Norway","Norway","Hedmark og Oppland","Hedmark","",""
"NO022","NO022","Europe (non EU)","Norway","Norway","Hedmark og Oppland","Oppland","",""
"NO034","NO034","Europe (non EU)","Norway","Norway","Sor-Ostlandet","Telemark","",""
"NO031","NO031","Europe (non EU)","Norway","Norway","Sor-Ostlandet","Ostfold","",""
"NO033","NO033","Europe (non EU)","Norway","Norway","Sor-Ostlandet","Vestfold","",""
"NO032","NO032","Europe (non EU)","Norway","Norway","Sor-Ostlandet","Buskerud","",""
"NO042","NO042","Europe (non EU)","Norway","Norway","Agder og Rogaland","Vest-Agder","",""
"NO043","NO043","Europe (non EU)","Norway","Norway","Agder og Rogaland","Rogaland","",""
"NO041","NO041","Europe (non EU)","Norway","Norway","Agder og Rogaland","Aust-Agder","",""
"NO053","NO053","Europe (non EU)","Norway","Norway","Vestlandet","More og Romsdal","",""
"NO051","NO051","Europe (non EU)","Norway","Norway","Vestlandet","Hordaland","",""
"NO052","NO052","Europe (non EU)","Norway","Norway","Vestlandet","Sogn og Fjordane","",""
"NO061","NO061","Europe (non EU)","Norway","Norway","Trondelag","Sor Trondelag","",""
"NO062","NO062","Europe (non EU)","Norway","Norway","Trondelag","Nord-Trondelag","",""
"NO073","NO073","Europe (non EU)","Norway","Norway","Nord-Norge","Finnmark","",""
"NO072","NO072","Europe (non EU)","Norway","Norway","Nord-Norge","Troms","",""
"NO071","NO071","Europe (non EU)","Norway","Norway","Nord-Norge","Nordland","",""
"TR100","TR100","Europe (non EU)","Turkey","ISTANBUL","Istanbul ","Istanbul ","",""
"TR211","TR211","Europe (non EU)","Turkey","BATI MARMARA","Tekirdag","Tekirdag","",""
"TR212","TR212","Europe (non EU)","Turkey","BATI MARMARA","Tekirdag","Edirne","",""
"TR213","TR213","Europe (non EU)","Turkey","BATI MARMARA","Tekirdag","Kırklareli","",""
"TR221","TR221","Europe (non EU)","Turkey","BATI MARMARA","Balıkesir","Balıkesir","",""
"TR222","TR222","Europe (non EU)","Turkey","BATI MARMARA","Balıkesir","Canakkale","",""
"TR310","TR310","Europe (non EU)","Turkey","EGE","Izmir","Izmir","",""
"TR321","TR321","Europe (non EU)","Turkey","EGE","Aydın","Aydın","",""
"TR323","TR323","Europe (non EU)","Turkey","EGE","Aydın","Mugla","",""
"TR322","TR322","Europe (non EU)","Turkey","EGE","Aydın","Denizli","",""
"TR332","TR332","Europe (non EU)","Turkey","EGE","Manisa","Afyon","",""
"TR334","TR334","Europe (non EU)","Turkey","EGE","Manisa","Usak","",""
"TR331","TR331","Europe (non EU)","Turkey","EGE","Manisa","Manisa","",""
"TR333","TR333","Europe (non EU)","Turkey","EGE","Manisa","Kutahya","",""
"TR412","TR412","Europe (non EU)","Turkey","DOGU MARMARA","Bursa","Eskisehir","",""
"TR413","TR413","Europe (non EU)","Turkey","DOGU MARMARA","Bursa","Bilecik","",""
"TR411","TR411","Europe (non EU)","Turkey","DOGU MARMARA","Bursa","Bursa","",""
"TR422","TR422","Europe (non EU)","Turkey","DOGU MARMARA","Kocaeli","Sakarya","",""
"TR423","TR423","Europe (non EU)","Turkey","DOGU MARMARA","Kocaeli","Duzce","",""
"TR421","TR421","Europe (non EU)","Turkey","DOGU MARMARA","Kocaeli","Kocaeli","",""
"TR425","TR425","Europe (non EU)","Turkey","DOGU MARMARA","Kocaeli","Yalova","",""
"TR424","TR424","Europe (non EU)","Turkey","DOGU MARMARA","Kocaeli","Bolu","",""
"TR510","TR510","Europe (non EU)","Turkey","BATI ANADOLU","Ankara","Ankara","",""
"TR521","TR521","Europe (non EU)","Turkey","BATI ANADOLU","Konya","Konya","",""
"TR522","TR522","Europe (non EU)","Turkey","BATI ANADOLU","Konya","Karaman","",""
"TR613","TR613","Europe (non EU)","Turkey","AKDENIZ","Antalya","Burdur","",""
"TR612","TR612","Europe (non EU)","Turkey","AKDENIZ","Antalya","Isparta","",""
"TR611","TR611","Europe (non EU)","Turkey","AKDENIZ","Antalya","Antalya","",""
"TR621","TR621","Europe (non EU)","Turkey","AKDENIZ","Adana","Adana","",""
"TR622","TR622","Europe (non EU)","Turkey","AKDENIZ","Adana","İcel","",""
"TR632","TR632","Europe (non EU)","Turkey","AKDENIZ","Hatay","Kahramanmaras","",""
"TR631","TR631","Europe (non EU)","Turkey","AKDENIZ","Hatay","Hatay","",""
"TR633","TR633","Europe (non EU)","Turkey","AKDENIZ","Hatay","Osmaniye","",""
"TR711","TR711","Europe (non EU)","Turkey","ORTA ANADOLU","Kırıkkale","Kırıkkale","",""
"TR712","TR712","Europe (non EU)","Turkey","ORTA ANADOLU","Kırıkkale","Aksaray","",""
"TR713","TR713","Europe (non EU)","Turkey","ORTA ANADOLU","Kırıkkale","Nigde","",""
"TR714","TR714","Europe (non EU)","Turkey","ORTA ANADOLU","Kırıkkale","Nevsehir","",""
"TR715","TR715","Europe (non EU)","Turkey","ORTA ANADOLU","Kırıkkale","Kırsehir","",""
"TR711","TR711","Europe (non EU)","Turkey","Kayseri","Kırıkkale","Kırıkkale","",""
"TR712","TR712","Europe (non EU)","Turkey","Kayseri","Kırıkkale","Aksaray","",""
"TR713","TR713","Europe (non EU)","Turkey","Kayseri","Kırıkkale","Nigde","",""
"TR714","TR714","Europe (non EU)","Turkey","Kayseri","Kırıkkale","Nevsehir","",""
"TR715","TR715","Europe (non EU)","Turkey","Kayseri","Kırıkkale","Kırsehir","",""
"TR723","TR723","Europe (non EU)","Turkey","ORTA ANADOLU","Kayseri","Yozgat","",""
"TR722","TR722","Europe (non EU)","Turkey","ORTA ANADOLU","Kayseri","Sivas","",""
"TR723","TR723","Europe (non EU)","Turkey","Kayseri","Kayseri","Yozgat","",""
"TR722","TR722","Europe (non EU)","Turkey","Kayseri","Kayseri","Sivas","",""
"TR812","TR812","Europe (non EU)","Turkey","BATI KARADENIZ","Zonguldak","Karabuk","",""
"TR813","TR813","Europe (non EU)","Turkey","BATI KARADENIZ","Zonguldak","Bartın","",""
"TR811","TR811","Europe (non EU)","Turkey","BATI KARADENIZ","Zonguldak","Zonguldak","",""
"TR822","TR822","Europe (non EU)","Turkey","BATI KARADENIZ","Kastamonu","Cankırı","",""
"TR823","TR823","Europe (non EU)","Turkey","BATI KARADENIZ","Kastamonu","Sinop","",""
"TR821","TR821","Europe (non EU)","Turkey","BATI KARADENIZ","Kastamonu","Kastamonu","",""
"TR832","TR832","Europe (non EU)","Turkey","BATI KARADENIZ","Samsun","Tokat","",""
"TR834","TR834","Europe (non EU)","Turkey","BATI KARADENIZ","Samsun","Amasya","",""
"TR833","TR833","Europe (non EU)","Turkey","BATI KARADENIZ","Samsun","Corum","",""
"TR831","TR831","Europe (non EU)","Turkey","BATI KARADENIZ","Samsun","Samsun","",""
"TR906","TR906","Europe (non EU)","Turkey","DOGU KARADENIZ","Trabzon","Gumushane","",""
"TR902","TR902","Europe (non EU)","Turkey","DOGU KARADENIZ","Trabzon","Ordu","",""
"TR903","TR903","Europe (non EU)","Turkey","DOGU KARADENIZ","Trabzon","Giresun","",""
"TR905","TR905","Europe (non EU)","Turkey","DOGU KARADENIZ","Trabzon","Artvin","",""
"TR904","TR904","Europe (non EU)","Turkey","DOGU KARADENIZ","Trabzon","Rize","",""
"TR901","TR901","Europe (non EU)","Turkey","DOGU KARADENIZ","Trabzon","Trabzon","",""
"TRA12","TRA12","Europe (non EU)","Turkey","KUZEYDOGU ANADOLU","Erzurum","Erzincan","",""
"TRA13","TRA13","Europe (non EU)","Turkey","KUZEYDOGU ANADOLU","Erzurum","Bayburt","",""
"TRA11","TRA11","Europe (non EU)","Turkey","KUZEYDOGU ANADOLU","Erzurum","Erzurum","",""
"TRA22","TRA22","Europe (non EU)","Turkey","KUZEYDOGU ANADOLU","Agrı","Kars","",""
"TRA21","TRA21","Europe (non EU)","Turkey","KUZEYDOGU ANADOLU","Agrı","Agrı","",""
"TRA23","TRA23","Europe (non EU)","Turkey","KUZEYDOGU ANADOLU","Agrı","Igdır","",""
"TRA24","TRA24","Europe (non EU)","Turkey","KUZEYDOGU ANADOLU","Agrı","Ardahan","",""
"TRB11","TRB11","Europe (non EU)","Turkey","ORTADOGU ANADOLU","Malatya","Malatya","",""
"TRB13","TRB13","Europe (non EU)","Turkey","ORTADOGU ANADOLU","Malatya","Bingol","",""
"TRB14","TRB14","Europe (non EU)","Turkey","ORTADOGU ANADOLU","Malatya","Tunceli","",""
"TRB12","TRB12","Europe (non EU)","Turkey","ORTADOGU ANADOLU","Malatya","Elazıg","",""
"TRB23","TRB23","Europe (non EU)","Turkey","ORTADOGU ANADOLU","Van","Bitlis","",""
"TRB22","TRB22","Europe (non EU)","Turkey","ORTADOGU ANADOLU","Van","Mus","",""
"TRB24","TRB24","Europe (non EU)","Turkey","ORTADOGU ANADOLU","Van","Hakkari","",""
"TRB21","TRB21","Europe (non EU)","Turkey","ORTADOGU ANADOLU","Van","Van","",""
"TRC11","TRC11","Europe (non EU)","Turkey","GUNEYDOGU ANADOLU","Gaziantep","Gaziantep","",""
"TRC12","TRC12","Europe (non EU)","Turkey","GUNEYDOGU ANADOLU","Gaziantep","Adıyaman","",""
"TRC13","TRC13","Europe (non EU)","Turkey","GUNEYDOGU ANADOLU","Gaziantep","Kilis","",""
"TRC21","TRC21","Europe (non EU)","Turkey","GUNEYDOGU ANADOLU","Sanlıurfa","Sanlıurfa","",""
"TRC22","TRC22","Europe (non EU)","Turkey","GUNEYDOGU ANADOLU","Sanlıurfa","Diyarbakır","",""
"TRC31","TRC31","Europe (non EU)","Turkey","GUNEYDOGU ANADOLU","Mardin","Mardin","",""
"TRC34","TRC34","Europe (non EU)","Turkey","GUNEYDOGU ANADOLU","Mardin","Siirt","",""
"TRC32","TRC32","Europe (non EU)","Turkey","GUNEYDOGU ANADOLU","Mardin","Batman","",""
"TRC33","TRC33","Europe (non EU)","Turkey","GUNEYDOGU ANADOLU","Mardin","Sırnak","",""
"AT112","AT112","European Union","Austria","OSTÖSTERREICH","Burgenland (A)","Nordburgenland","",""
"AT111","AT111","European Union","Austria","OSTÖSTERREICH","Burgenland (A)","Mittelburgenland","",""
"AT113","AT113","European Union","Austria","OSTÖSTERREICH","Burgenland (A)","Südburgenland","",""
"AT121","AT121","European Union","Austria","OSTÖSTERREICH","Niederösterreich","Mostviertel-Eisenwurzen","",""
"AT122","AT122","European Union","Austria","OSTÖSTERREICH","Niederösterreich","Niederösterreich-Süd","",""
"AT125","AT125","European Union","Austria","OSTÖSTERREICH","Niederösterreich","Weinviertel","",""
"AT123","AT123","European Union","Austria","OSTÖSTERREICH","Niederösterreich","Sankt Pölten","",""
"AT124","AT124","European Union","Austria","OSTÖSTERREICH","Niederösterreich","Waldviertel","",""
"AT126","AT126","European Union","Austria","OSTÖSTERREICH","Niederösterreich","Wiener Umland/Nordteil","",""
"AT127","AT127","European Union","Austria","OSTÖSTERREICH","Niederösterreich","Wiener Umland/Südteil","",""
"AT130","AT130","European Union","Austria","OSTÖSTERREICH","Wien","Wien","",""
"AT211","AT211","European Union","Austria","SÜDÖSTERREICH","Kärnten","Klagenfurt-Villach","",""
"AT213","AT213","European Union","Austria","SÜDÖSTERREICH","Kärnten","Unterkärnten","",""
"AT212","AT212","European Union","Austria","SÜDÖSTERREICH","Kärnten","Oberkärnten","",""
"AT223","AT223","European Union","Austria","SÜDÖSTERREICH","Steiermark","Östliche Obersteiermark","",""
"AT224","AT224","European Union","Austria","SÜDÖSTERREICH","Steiermark","Oststeiermark","",""
"AT225","AT225","European Union","Austria","SÜDÖSTERREICH","Steiermark","West- und Südsteiermark","",""
"AT226","AT226","European Union","Austria","SÜDÖSTERREICH","Steiermark","Westliche Obersteiermark","",""
"AT221","AT221","European Union","Austria","SÜDÖSTERREICH","Steiermark","Graz","",""
"AT222","AT222","European Union","Austria","SÜDÖSTERREICH","Steiermark","Liezen","",""
"AT311","AT311","European Union","Austria","WESTÖSTERREICH","Oberösterreich","Innviertel","",""
"AT315","AT315","European Union","Austria","WESTÖSTERREICH","Oberösterreich","Traunviertel","",""
"AT314","AT314","European Union","Austria","WESTÖSTERREICH","Oberösterreich","Steyr-Kirchdorf","",""
"AT312","AT312","European Union","Austria","WESTÖSTERREICH","Oberösterreich","Linz-Wels","",""
"AT313","AT313","European Union","Austria","WESTÖSTERREICH","Oberösterreich","Mühlviertel","",""
"AT323","AT323","European Union","Austria","WESTÖSTERREICH","Salzburg","Salzburg und Umgebung","",""
"AT321","AT321","European Union","Austria","WESTÖSTERREICH","Salzburg","Lungau","",""
"AT322","AT322","European Union","Austria","WESTÖSTERREICH","Salzburg","Pinzgau-Pongau","",""
"AT334","AT334","European Union","Austria","WESTÖSTERREICH","Tirol","Tiroler Oberland","",""
"AT335","AT335","European Union","Austria","WESTÖSTERREICH","Tirol","Tiroler Unterland","",""
"AT333","AT333","European Union","Austria","WESTÖSTERREICH","Tirol","Osttirol","",""
"AT332","AT332","European Union","Austria","WESTÖSTERREICH","Tirol","Innsbruck","",""
"AT331","AT331","European Union","Austria","WESTÖSTERREICH","Tirol","Außerfern","",""
"AT341","AT341","European Union","Austria","WESTÖSTERREICH","Vorarlberg","Bludenz-Bregenzer Wald","",""
"AT342","AT342","European Union","Austria","WESTÖSTERREICH","Vorarlberg","Rheintal-Bodenseegebiet","",""
"ATZZZ","ATZZZ","European Union","Austria","EXTRA-REGIO","Extra-Regio","Extra-Regio","",""
"BE100","BE100","European Union","Belgium","RÉGION DE BRUXELLES-CAPITALE / BRUSSELS HOOFDSTEDELIJK GEWEST","Région de Bruxelles-Capitale / Brussels Hoofdstedelijk Gewest","Arr. de Bruxelles-Capitale / Arr. van Brussel-Hoofdstad","",""
"BE211","BE211","European Union","Belgium","VLAAMS GEWEST","Prov. Antwerpen","Arr. Antwerpen","",""
"BE212","BE212","European Union","Belgium","VLAAMS GEWEST","Prov. Antwerpen","Arr. Mechelen","",""
"BE213","BE213","European Union","Belgium","VLAAMS GEWEST","Prov. Antwerpen","Arr. Turnhout","",""
"BE221","BE221","European Union","Belgium","VLAAMS GEWEST","Prov. Limburg (B)","Arr. Hasselt","",""
"BE222","BE222","European Union","Belgium","VLAAMS GEWEST","Prov. Limburg (B)","Arr. Maaseik","",""
"BE223","BE223","European Union","Belgium","VLAAMS GEWEST","Prov. Limburg (B)","Arr. Tongeren","",""
"BE233","BE233","European Union","Belgium","VLAAMS GEWEST","Prov. Oost-Vlaanderen","Arr. Eeklo","",""
"BE231","BE231","European Union","Belgium","VLAAMS GEWEST","Prov. Oost-Vlaanderen","Arr. Aalst","",""
"BE232","BE232","European Union","Belgium","VLAAMS GEWEST","Prov. Oost-Vlaanderen","Arr. Dendermonde","",""
"BE235","BE235","European Union","Belgium","VLAAMS GEWEST","Prov. Oost-Vlaanderen","Arr. Oudenaarde","",""
"BE236","BE236","European Union","Belgium","VLAAMS GEWEST","Prov. Oost-Vlaanderen","Arr. Sint-Niklaas","",""
"BE234","BE234","European Union","Belgium","VLAAMS GEWEST","Prov. Oost-Vlaanderen","Arr. Gent","",""
"BE241","BE241","European Union","Belgium","VLAAMS GEWEST","Prov. Vlaams-Brabant","Arr. Halle-Vilvoorde","",""
"BE242","BE242","European Union","Belgium","VLAAMS GEWEST","Prov. Vlaams-Brabant","Arr. Leuven","",""
"BE258","BE258","European Union","Belgium","VLAAMS GEWEST","Prov. West-Vlaanderen","Arr. Veurne","",""
"BE251","BE251","European Union","Belgium","VLAAMS GEWEST","Prov. West-Vlaanderen","Arr. Brugge","",""
"BE255","BE255","European Union","Belgium","VLAAMS GEWEST","Prov. West-Vlaanderen","Arr. Oostende","",""
"BE256","BE256","European Union","Belgium","VLAAMS GEWEST","Prov. West-Vlaanderen","Arr. Roeselare","",""
"BE252","BE252","European Union","Belgium","VLAAMS GEWEST","Prov. West-Vlaanderen","Arr. Diksmuide","",""
"BE253","BE253","European Union","Belgium","VLAAMS GEWEST","Prov. West-Vlaanderen","Arr. Ieper","",""
"BE254","BE254","European Union","Belgium","VLAAMS GEWEST","Prov. West-Vlaanderen","Arr. Kortrijk","",""
"BE257","BE257","European Union","Belgium","VLAAMS GEWEST","Prov. West-Vlaanderen","Arr. Tielt","",""
"BE310","BE310","European Union","Belgium","RÉGION WALLONNE","Prov. Brabant Wallon","Arr. Nivelles","",""
"BE327","BE327","European Union","Belgium","RÉGION WALLONNE","Prov. Hainaut","Arr. Tournai","",""
"BE326","BE326","European Union","Belgium","RÉGION WALLONNE","Prov. Hainaut","Arr. Thuin","",""
"BE323","BE323","European Union","Belgium","RÉGION WALLONNE","Prov. Hainaut","Arr. Mons","",""
"BE322","BE322","European Union","Belgium","RÉGION WALLONNE","Prov. Hainaut","Arr. Charleroi","",""
"BE321","BE321","European Union","Belgium","RÉGION WALLONNE","Prov. Hainaut","Arr. Ath","",""
"BE325","BE325","European Union","Belgium","RÉGION WALLONNE","Prov. Hainaut","Arr. Soignies","",""
"BE324","BE324","European Union","Belgium","RÉGION WALLONNE","Prov. Hainaut","Arr. Mouscron","",""
"BE334","BE334","European Union","Belgium","RÉGION WALLONNE","Prov. Liège","Arr. Waremme","",""
"BE332","BE332","European Union","Belgium","RÉGION WALLONNE","Prov. Liège","Arr. Liège","",""
"BE331","BE331","European Union","Belgium","RÉGION WALLONNE","Prov. Liège","Arr. Huy","",""
"BE336","BE336","European Union","Belgium","RÉGION WALLONNE","Prov. Liège","Bezirk Verviers - Deutschsprachige Gemeinschaft","",""
"BE335","BE335","European Union","Belgium","RÉGION WALLONNE","Prov. Liège","Arr. Verviers - communes francophones","",""
"BE342","BE342","European Union","Belgium","RÉGION WALLONNE","Prov. Luxembourg (B)","Arr. Bastogne","",""
"BE343","BE343","European Union","Belgium","RÉGION WALLONNE","Prov. Luxembourg (B)","Arr. Marche-en-Famenne","",""
"BE341","BE341","European Union","Belgium","RÉGION WALLONNE","Prov. Luxembourg (B)","Arr. Arlon","",""
"BE344","BE344","European Union","Belgium","RÉGION WALLONNE","Prov. Luxembourg (B)","Arr. Neufchâteau","",""
"BE345","BE345","European Union","Belgium","RÉGION WALLONNE","Prov. Luxembourg (B)","Arr. Virton","",""
"BE353","BE353","European Union","Belgium","RÉGION WALLONNE","Prov. Namur","Arr. Philippeville","",""
"BE352","BE352","European Union","Belgium","RÉGION WALLONNE","Prov. Namur","Arr. Namur","",""
"BE351","BE351","European Union","Belgium","RÉGION WALLONNE","Prov. Namur","Arr. Dinant","",""
"BEZZZ","BEZZZ","European Union","Belgium","EXTRA-REGIO","Extra-Regio","Extra-Regio","",""
"BG311","BG311","European Union","Bulgaria","SEVERNA I IZTOCHNA BULGARIA","Severozapaden","Vidin","",""
"BG312","BG312","European Union","Bulgaria","SEVERNA I IZTOCHNA BULGARIA","Severozapaden","Montana","",""
"BG313","BG313","European Union","Bulgaria","SEVERNA I IZTOCHNA BULGARIA","Severozapaden","Vratsa","",""
"BG314","BG314","European Union","Bulgaria","SEVERNA I IZTOCHNA BULGARIA","Severozapaden","Pleven","",""
"BG315","BG315","European Union","Bulgaria","SEVERNA I IZTOCHNA BULGARIA","Severozapaden","Lovech","",""
"BG322","BG322","European Union","Bulgaria","SEVERNA I IZTOCHNA BULGARIA","Severen tsentralen","Gabrovo","",""
"BG323","BG323","European Union","Bulgaria","SEVERNA I IZTOCHNA BULGARIA","Severen tsentralen","Ruse","",""
"BG324","BG324","European Union","Bulgaria","SEVERNA I IZTOCHNA BULGARIA","Severen tsentralen","Razgrad","",""
"BG321","BG321","European Union","Bulgaria","SEVERNA I IZTOCHNA BULGARIA","Severen tsentralen","Veliko Tarnovo","",""
"BG325","BG325","European Union","Bulgaria","SEVERNA I IZTOCHNA BULGARIA","Severen tsentralen","Silistra","",""
"BG333","BG333","European Union","Bulgaria","SEVERNA I IZTOCHNA BULGARIA","Severoiztochen","Shumen","",""
"BG332","BG332","European Union","Bulgaria","SEVERNA I IZTOCHNA BULGARIA","Severoiztochen","Dobrich","",""
"BG334","BG334","European Union","Bulgaria","SEVERNA I IZTOCHNA BULGARIA","Severoiztochen","Targovishte","",""
"BG331","BG331","European Union","Bulgaria","SEVERNA I IZTOCHNA BULGARIA","Severoiztochen","Varna","",""
"BG341","BG341","European Union","Bulgaria","SEVERNA I IZTOCHNA BULGARIA","Yugoiztochen","Burgas","",""
"BG342","BG342","European Union","Bulgaria","SEVERNA I IZTOCHNA BULGARIA","Yugoiztochen","Sliven","",""
"BG344","BG344","European Union","Bulgaria","SEVERNA I IZTOCHNA BULGARIA","Yugoiztochen","Stara Zagora","",""
"BG343","BG343","European Union","Bulgaria","SEVERNA I IZTOCHNA BULGARIA","Yugoiztochen","Yambol","",""
"BG415","BG415","European Union","Bulgaria","YUGOZAPADNA I YUZHNA TSENTRALNA BULGARIA","Yugozapaden","Kyustendil","",""
"BG412","BG412","European Union","Bulgaria","YUGOZAPADNA I YUZHNA TSENTRALNA BULGARIA","Yugozapaden","Sofia","",""
"BG414","BG414","European Union","Bulgaria","YUGOZAPADNA I YUZHNA TSENTRALNA BULGARIA","Yugozapaden","Pernik","",""
"BG411","BG411","European Union","Bulgaria","YUGOZAPADNA I YUZHNA TSENTRALNA BULGARIA","Yugozapaden","Sofia (stolitsa)","",""
"BG413","BG413","European Union","Bulgaria","YUGOZAPADNA I YUZHNA TSENTRALNA BULGARIA","Yugozapaden","Blagoevgrad","",""
"BG422","BG422","European Union","Bulgaria","YUGOZAPADNA I YUZHNA TSENTRALNA BULGARIA","Yuzhen tsentralen","Haskovo","",""
"BG423","BG423","European Union","Bulgaria","YUGOZAPADNA I YUZHNA TSENTRALNA BULGARIA","Yuzhen tsentralen","Pazardzhik","",""
"BG425","BG425","European Union","Bulgaria","YUGOZAPADNA I YUZHNA TSENTRALNA BULGARIA","Yuzhen tsentralen","Kardzhali","",""
"BG421","BG421","European Union","Bulgaria","YUGOZAPADNA I YUZHNA TSENTRALNA BULGARIA","Yuzhen tsentralen","Plovdiv","",""
"BG424","BG424","European Union","Bulgaria","YUGOZAPADNA I YUZHNA TSENTRALNA BULGARIA","Yuzhen tsentralen","Smolyan","",""
"BGZZZ","BGZZZ","European Union","Bulgaria","EXTRA-REGIO","freiburg","Extra-Regio","",""
"CY000","CY000","European Union","Cyprus","KIBRIS","Kıbrıs","Kıbrıs","",""
"CYZZZ","CYZZZ","European Union","Cyprus","EXTRA-REGIO","Extra-Regio","Extra-Regio","",""
"CZ010","CZ010","European Union","Cekia","ČESKÁ REPUBLIKA","Praha","Hlavní město Praha","",""
"CZ020","CZ020","European Union","Cekia","ČESKÁ REPUBLIKA","Střední Čechy","Středočeský kraj","",""
"CZ032","CZ032","European Union","Cekia","ČESKÁ REPUBLIKA","Jihozápad","Plzeňský kraj","",""
"CZ031","CZ031","European Union","Cekia","ČESKÁ REPUBLIKA","Jihozápad","Jihočeský kraj","",""
"CZ041","CZ041","European Union","Cekia","ČESKÁ REPUBLIKA","Severozápad","Karlovarský kraj","",""
"CZ042","CZ042","European Union","Cekia","ČESKÁ REPUBLIKA","Severozápad","Ústecký kraj","",""
"CZ053","CZ053","European Union","Cekia","ČESKÁ REPUBLIKA","Severovýchod","Pardubický kraj","",""
"CZ051","CZ051","European Union","Cekia","ČESKÁ REPUBLIKA","Severovýchod","Liberecký kraj","",""
"CZ052","CZ052","European Union","Cekia","ČESKÁ REPUBLIKA","Severovýchod","Královéhradecký kraj","",""
"CZ063","CZ063","European Union","Cekia","ČESKÁ REPUBLIKA","Jihovýchod","Vysočina","",""
"CZ064","CZ064","European Union","Cekia","ČESKÁ REPUBLIKA","Jihovýchod","Jihomoravský kraj","",""
"CZ072","CZ072","European Union","Cekia","ČESKÁ REPUBLIKA","Střední Morava","Zlínský kraj","",""
"CZ071","CZ071","European Union","Cekia","ČESKÁ REPUBLIKA","Střední Morava","Olomoucký kraj","",""
"CZ080","CZ080","European Union","Cekia","ČESKÁ REPUBLIKA","Moravskoslezsko","Moravskoslezský kraj","",""
"CZZZZ","CZZZZ","European Union","Cekia","EXTRA-REGIO","Extra-Regio","Extra-Regio","",""
"DE119","DE119","European Union","Germany","BADEN-WÜRTTEMBERG","Stuttgart","Hohenlohekreis","",""
"DE118","DE118","European Union","Germany","BADEN-WÜRTTEMBERG","Stuttgart","Heilbronn, Landkreis","",""
"DE11D","DE11D","European Union","Germany","BADEN-WÜRTTEMBERG","Stuttgart","Ostalbkreis","",""
"DE11B","DE11B","European Union","Germany","BADEN-WÜRTTEMBERG","Stuttgart","Main-Tauber-Kreis","",""
"DE11C","DE11C","European Union","Germany","BADEN-WÜRTTEMBERG","Stuttgart","Heidenheim","",""
"DE117","DE117","European Union","Germany","BADEN-WÜRTTEMBERG","Stuttgart","Heilbronn, Stadtkreis","",""
"DE11A","DE11A","European Union","Germany","BADEN-WÜRTTEMBERG","Stuttgart","Schwäbisch Hall","",""
"DE115","DE115","European Union","Germany","BADEN-WÜRTTEMBERG","Stuttgart","Ludwigsburg","",""
"DE111","DE111","European Union","Germany","BADEN-WÜRTTEMBERG","Stuttgart","Stuttgart, Stadtkreis","",""
"DE112","DE112","European Union","Germany","BADEN-WÜRTTEMBERG","Stuttgart","Böblingen","",""
"DE114","DE114","European Union","Germany","BADEN-WÜRTTEMBERG","Stuttgart","Göppingen","",""
"DE113","DE113","European Union","Germany","BADEN-WÜRTTEMBERG","Stuttgart","Esslingen","",""
"DE116","DE116","European Union","Germany","BADEN-WÜRTTEMBERG","Stuttgart","Rems-Murr-Kreis","",""
"DE127","DE127","European Union","Germany","BADEN-WÜRTTEMBERG","Karlsruhe","Neckar-Odenwald-Kreis","",""
"DE123","DE123","European Union","Germany","BADEN-WÜRTTEMBERG","Karlsruhe","Karlsruhe, Landkreis","",""
"DE12B","DE12B","European Union","Germany","BADEN-WÜRTTEMBERG","Karlsruhe","Enzkreis","",""
"DE128","DE128","European Union","Germany","BADEN-WÜRTTEMBERG","Karlsruhe","Rhein-Neckar-Kreis","",""
"DE12A","DE12A","European Union","Germany","BADEN-WÜRTTEMBERG","Karlsruhe","Calw","",""
"DE126","DE126","European Union","Germany","BADEN-WÜRTTEMBERG","Karlsruhe","Mannheim, Stadtkreis","",""
"DE124","DE124","European Union","Germany","BADEN-WÜRTTEMBERG","Karlsruhe","Rastatt","",""
"DE129","DE129","European Union","Germany","BADEN-WÜRTTEMBERG","Karlsruhe","Pforzheim, Stadtkreis","",""
"DE122","DE122","European Union","Germany","BADEN-WÜRTTEMBERG","Karlsruhe","Karlsruhe, Stadtkreis","",""
"DE125","DE125","European Union","Germany","BADEN-WÜRTTEMBERG","Karlsruhe","Heidelberg, Stadtkreis","",""
"DE12C","DE12C","European Union","Germany","BADEN-WÜRTTEMBERG","Karlsruhe","Freudenstadt","",""
"DE121","DE121","European Union","Germany","BADEN-WÜRTTEMBERG","Karlsruhe","Baden-Baden, Stadtkreis","",""
"DE13A","DE13A","European Union","Germany","BADEN-WÜRTTEMBERG","Freiburg","Waldshut","",""
"DE137","DE137","European Union","Germany","BADEN-WÜRTTEMBERG","Freiburg","Tuttlingen","",""
"DE139","DE139","European Union","Germany","BADEN-WÜRTTEMBERG","Freiburg","Lörrach","",""
"DE134","DE134","European Union","Germany","BADEN-WÜRTTEMBERG","Freiburg","Ortenaukreis","",""
"DE132","DE132","European Union","Germany","BADEN-WÜRTTEMBERG","Freiburg","Breisgau-Hochschwarzwald","",""
"DE133","DE133","European Union","Germany","BADEN-WÜRTTEMBERG","Freiburg","Emmendingen","",""
"DE138","DE138","European Union","Germany","BADEN-WÜRTTEMBERG","Freiburg","Konstanz","",""
"DE136","DE136","European Union","Germany","BADEN-WÜRTTEMBERG","Freiburg","Schwarzwald-Baar-Kreis","",""
"DE131","DE131","European Union","Germany","BADEN-WÜRTTEMBERG","Freiburg","Freiburg im Breisgau, Stadtkreis","",""
"DE135","DE135","European Union","Germany","BADEN-WÜRTTEMBERG","Freiburg","Rottweil","",""
"DE148","DE148","European Union","Germany","BADEN-WÜRTTEMBERG","Tübingen","Ravensburg","",""
"DE142","DE142","European Union","Germany","BADEN-WÜRTTEMBERG","Tübingen","Tübingen, Landkreis","",""
"DE143","DE143","European Union","Germany","BADEN-WÜRTTEMBERG","Tübingen","Zollernalbkreis","",""
"DE145","DE145","European Union","Germany","BADEN-WÜRTTEMBERG","Tübingen","Alb-Donau-Kreis","",""
"DE141","DE141","European Union","Germany","BADEN-WÜRTTEMBERG","Tübingen","Reutlingen","",""
"DE147","DE147","European Union","Germany","BADEN-WÜRTTEMBERG","Tübingen","Bodenseekreis","",""
"DE146","DE146","European Union","Germany","BADEN-WÜRTTEMBERG","Tübingen","Biberach","",""
"DE149","DE149","European Union","Germany","BADEN-WÜRTTEMBERG","Tübingen","Sigmaringen","",""
"DE144","DE144","European Union","Germany","BADEN-WÜRTTEMBERG","Tübingen","Ulm, Stadtkreis","",""
"DE21I","DE21I","European Union","Germany","BAYERN","Oberbayern","Neuburg-Schrobenhausen","",""
"DE21M","DE21M","European Union","Germany","BAYERN","Oberbayern","Traunstein","",""
"DE211","DE211","European Union","Germany","BAYERN","Oberbayern","Ingolstadt, Kreisfreie Stadt","",""
"DE21N","DE21N","European Union","Germany","BAYERN","Oberbayern","Weilheim-Schongau","",""
"DE215","DE215","European Union","Germany","BAYERN","Oberbayern","Berchtesgadener Land","",""
"DE216","DE216","European Union","Germany","BAYERN","Oberbayern","Bad Tölz-Wolfratshausen","",""
"DE212","DE212","European Union","Germany","BAYERN","Oberbayern","München, Kreisfreie Stadt","",""
"DE218","DE218","European Union","Germany","BAYERN","Oberbayern","Ebersberg","",""
"DE219","DE219","European Union","Germany","BAYERN","Oberbayern","Eichstätt","",""
"DE21A","DE21A","European Union","Germany","BAYERN","Oberbayern","Erding","",""
"DE217","DE217","European Union","Germany","BAYERN","Oberbayern","Dachau","",""
"DE21G","DE21G","European Union","Germany","BAYERN","Oberbayern","Mühldorf a. Inn","",""
"DE21H","DE21H","European Union","Germany","BAYERN","Oberbayern","München, Landkreis","",""
"DE21J","DE21J","European Union","Germany","BAYERN","Oberbayern","Pfaffenhofen a. d. Ilm","",""
"DE21F","DE21F","European Union","Germany","BAYERN","Oberbayern","Miesbach","",""
"DE21L","DE21L","European Union","Germany","BAYERN","Oberbayern","Starnberg","",""
"DE21C","DE21C","European Union","Germany","BAYERN","Oberbayern","Fürstenfeldbruck","",""
"DE21D","DE21D","European Union","Germany","BAYERN","Oberbayern","Garmisch-Partenkirchen","",""
"DE21K","DE21K","European Union","Germany","BAYERN","Oberbayern","Rosenheim, Landkreis","",""
"DE21B","DE21B","European Union","Germany","BAYERN","Oberbayern","Freising","",""
"DE213","DE213","European Union","Germany","BAYERN","Oberbayern","Rosenheim, Kreisfreie Stadt","",""
"DE214","DE214","European Union","Germany","BAYERN","Oberbayern","Altötting","",""
"DE21E","DE21E","European Union","Germany","BAYERN","Oberbayern","Landsberg a. Lech","",""
"DE22C","DE22C","European Union","Germany","BAYERN","Niederbayern","Dingolfing-Landau","",""
"DE221","DE221","European Union","Germany","BAYERN","Niederbayern","Landshut, Kreisfreie Stadt","",""
"DE223","DE223","European Union","Germany","BAYERN","Niederbayern","Straubing, Kreisfreie Stadt","",""
"DE224","DE224","European Union","Germany","BAYERN","Niederbayern","Deggendorf","",""
"DE22B","DE22B","European Union","Germany","BAYERN","Niederbayern","Straubing-Bogen","",""
"DE22A","DE22A","European Union","Germany","BAYERN","Niederbayern","Rottal-Inn","",""
"DE226","DE226","European Union","Germany","BAYERN","Niederbayern","Kelheim","",""
"DE228","DE228","European Union","Germany","BAYERN","Niederbayern","Passau, Landkreis","",""
"DE227","DE227","European Union","Germany","BAYERN","Niederbayern","Landshut, Landkreis","",""
"DE225","DE225","European Union","Germany","BAYERN","Niederbayern","Freyung-Grafenau","",""
"DE222","DE222","European Union","Germany","BAYERN","Niederbayern","Passau, Kreisfreie Stadt","",""
"DE229","DE229","European Union","Germany","BAYERN","Niederbayern","Regen","",""
"DE23A","DE23A","European Union","Germany","BAYERN","Oberpfalz","Tirschenreuth","",""
"DE232","DE232","European Union","Germany","BAYERN","Oberpfalz","Regensburg, Kreisfreie Stadt","",""
"DE239","DE239","European Union","Germany","BAYERN","Oberpfalz","Schwandorf","",""
"DE236","DE236","European Union","Germany","BAYERN","Oberpfalz","Neumarkt i. d. OPf.","",""
"DE231","DE231","European Union","Germany","BAYERN","Oberpfalz","Amberg, Kreisfreie Stadt","",""
"DE238","DE238","European Union","Germany","BAYERN","Oberpfalz","Regensburg, Landkreis","",""
"DE233","DE233","European Union","Germany","BAYERN","Oberpfalz","Weiden i. d. Opf, Kreisfreie Stadt","",""
"DE235","DE235","European Union","Germany","BAYERN","Oberpfalz","Cham","",""
"DE237","DE237","European Union","Germany","BAYERN","Oberpfalz","Neustadt a. d. Waldnaab","",""
"DE234","DE234","European Union","Germany","BAYERN","Oberpfalz","Amberg-Sulzbach","",""
"DE242","DE242","European Union","Germany","BAYERN","Oberfranken","Bayreuth, Kreisfreie Stadt","",""
"DE241","DE241","European Union","Germany","BAYERN","Oberfranken","Bamberg, Kreisfreie Stadt","",""
"DE245","DE245","European Union","Germany","BAYERN","Oberfranken","Bamberg, Landkreis","",""
"DE246","DE246","European Union","Germany","BAYERN","Oberfranken","Bayreuth, Landkreis","",""
"DE244","DE244","European Union","Germany","BAYERN","Oberfranken","Hof, Kreisfreie Stadt","",""
"DE24D","DE24D","European Union","Germany","BAYERN","Oberfranken","Wunsiedel i. Fichtelgebirge","",""
"DE249","DE249","European Union","Germany","BAYERN","Oberfranken","Hof, Landkreis","",""
"DE243","DE243","European Union","Germany","BAYERN","Oberfranken","Coburg, Kreisfreie Stadt","",""
"DE24C","DE24C","European Union","Germany","BAYERN","Oberfranken","Lichtenfels","",""
"DE248","DE248","European Union","Germany","BAYERN","Oberfranken","Forchheim","",""
"DE247","DE247","European Union","Germany","BAYERN","Oberfranken","Coburg, Landkreis","",""
"DE24A","DE24A","European Union","Germany","BAYERN","Oberfranken","Kronach","",""
"DE24B","DE24B","European Union","Germany","BAYERN","Oberfranken","Kulmbach","",""
"DE253","DE253","European Union","Germany","BAYERN","Mittelfranken","Fürth, Kreisfreie Stadt","",""
"DE254","DE254","European Union","Germany","BAYERN","Mittelfranken","Nürnberg, Kreisfreie Stadt","",""
"DE259","DE259","European Union","Germany","BAYERN","Mittelfranken","Nürnberger Land","",""
"DE258","DE258","European Union","Germany","BAYERN","Mittelfranken","Fürth, Landkreis","",""
"DE252","DE252","European Union","Germany","BAYERN","Mittelfranken","Erlangen, Kreisfreie Stadt","",""
"DE257","DE257","European Union","Germany","BAYERN","Mittelfranken","Erlangen-Höchstadt","",""
"DE251","DE251","European Union","Germany","BAYERN","Mittelfranken","Ansbach, Kreisfreie Stadt","",""
"DE256","DE256","European Union","Germany","BAYERN","Mittelfranken","Ansbach, Landkreis","",""
"DE25C","DE25C","European Union","Germany","BAYERN","Mittelfranken","Weißenburg-Gunzenhausen","",""
"DE255","DE255","European Union","Germany","BAYERN","Mittelfranken","Schwabach, Kreisfreie Stadt","",""
"DE25B","DE25B","European Union","Germany","BAYERN","Mittelfranken","Roth","",""
"DE25A","DE25A","European Union","Germany","BAYERN","Mittelfranken","Neustadt a. d. Aisch-Bad Windsheim","",""
"DE266","DE266","European Union","Germany","BAYERN","Unterfranken","Rhön-Grabfeld","",""
"DE262","DE262","European Union","Germany","BAYERN","Unterfranken","Schweinfurt, Kreisfreie Stadt","",""
"DE265","DE265","European Union","Germany","BAYERN","Unterfranken","Bad Kissingen","",""
"DE26B","DE26B","European Union","Germany","BAYERN","Unterfranken","Schweinfurt, Landkreis","",""
"DE261","DE261","European Union","Germany","BAYERN","Unterfranken","Aschaffenburg, Kreisfreie Stadt","",""
"DE267","DE267","European Union","Germany","BAYERN","Unterfranken","Haßberge","",""
"DE264","DE264","European Union","Germany","BAYERN","Unterfranken","Aschaffenburg, Landkreis","",""
"DE26C","DE26C","European Union","Germany","BAYERN","Unterfranken","Würzburg, Landkreis","",""
"DE26A","DE26A","European Union","Germany","BAYERN","Unterfranken","Main-Spessart","",""
"DE269","DE269","European Union","Germany","BAYERN","Unterfranken","Miltenberg","",""
"DE263","DE263","European Union","Germany","BAYERN","Unterfranken","Würzburg, Kreisfreie Stadt","",""
"DE268","DE268","European Union","Germany","BAYERN","Unterfranken","Kitzingen","",""
"DE27E","DE27E","European Union","Germany","BAYERN","Schwaben","Oberallgäu","",""
"DE274","DE274","European Union","Germany","BAYERN","Schwaben","Memmingen, Kreisfreie Stadt","",""
"DE271","DE271","European Union","Germany","BAYERN","Schwaben","Augsburg, Kreisfreie Stadt","",""
"DE273","DE273","European Union","Germany","BAYERN","Schwaben","Kempten (Allgäu), Kreisfreie Stadt","",""
"DE277","DE277","European Union","Germany","BAYERN","Schwaben","Dillingen a.d. Donau","",""
"DE27D","DE27D","European Union","Germany","BAYERN","Schwaben","Donau-Ries","",""
"DE275","DE275","European Union","Germany","BAYERN","Schwaben","Aichach-Friedberg","",""
"DE272","DE272","European Union","Germany","BAYERN","Schwaben","Kaufbeuren, Kreisfreie Stadt","",""
"DE27B","DE27B","European Union","Germany","BAYERN","Schwaben","Ostallgäu","",""
"DE27A","DE27A","European Union","Germany","BAYERN","Schwaben","Lindau (Bodensee)","",""
"DE278","DE278","European Union","Germany","BAYERN","Schwaben","Günzburg","",""
"DE27C","DE27C","European Union","Germany","BAYERN","Schwaben","Unterallgäu","",""
"DE276","DE276","European Union","Germany","BAYERN","Schwaben","Augsburg, Landkreis","",""
"DE279","DE279","European Union","Germany","BAYERN","Schwaben","Neu-Ulm","",""
"DE300","DE300","European Union","Germany","BERLIN","Berlin","Berlin","",""
"DE411","DE411","European Union","Germany","BRANDENBURG","Brandenburg - Nordost","Frankfurt (Oder), Kreisfreie Stadt","",""
"DE413","DE413","European Union","Germany","BRANDENBURG","Brandenburg - Nordost","Märkisch-Oderland","",""
"DE415","DE415","European Union","Germany","BRANDENBURG","Brandenburg - Nordost","Oder-Spree","",""
"DE412","DE412","European Union","Germany","BRANDENBURG","Brandenburg - Nordost","Barnim","",""
"DE417","DE417","European Union","Germany","BRANDENBURG","Brandenburg - Nordost","Prignitz","",""
"DE416","DE416","European Union","Germany","BRANDENBURG","Brandenburg - Nordost","Ostprignitz-Ruppin","",""
"DE418","DE418","European Union","Germany","BRANDENBURG","Brandenburg - Nordost","Uckermark","",""
"DE414","DE414","European Union","Germany","BRANDENBURG","Brandenburg - Nordost","Oberhavel","",""
"DE422","DE422","European Union","Germany","BRANDENBURG","Brandenburg - Südwest","Cottbus, Kreisfreie Stadt","",""
"DE421","DE421","European Union","Germany","BRANDENBURG","Brandenburg - Südwest","Brandenburg an der Havel, Kreisfreie Stadt","",""
"DE426","DE426","European Union","Germany","BRANDENBURG","Brandenburg - Südwest","Havelland","",""
"DE428","DE428","European Union","Germany","BRANDENBURG","Brandenburg - Südwest","Potsdam-Mittelmark","",""
"DE425","DE425","European Union","Germany","BRANDENBURG","Brandenburg - Südwest","Elbe-Elster","",""
"DE427","DE427","European Union","Germany","BRANDENBURG","Brandenburg - Südwest","Oberspreewald-Lausitz","",""
"DE423","DE423","European Union","Germany","BRANDENBURG","Brandenburg - Südwest","Potsdam, Kreisfreie Stadt","",""
"DE42A","DE42A","European Union","Germany","BRANDENBURG","Brandenburg - Südwest","Teltow-Fläming","",""
"DE429","DE429","European Union","Germany","BRANDENBURG","Brandenburg - Südwest","Spree-Neiße","",""
"DE424","DE424","European Union","Germany","BRANDENBURG","Brandenburg - Südwest","Dahme-Spreewald","",""
"DE502","DE502","European Union","Germany","BREMEN","Bremen","Bremerhaven, Kreisfreie Stadt","",""
"DE501","DE501","European Union","Germany","BREMEN","Bremen","Bremen, Kreisfreie Stadt","",""
"DE600","DE600","European Union","Germany","HAMBURG","Hamburg","Hamburg","",""
"DE713","DE713","European Union","Germany","HESSEN","Darmstadt","Offenbach am Main, Kreisfreie Stadt","",""
"DE719","DE719","European Union","Germany","HESSEN","Darmstadt","Main-Kinzig-Kreis","",""
"DE717","DE717","European Union","Germany","HESSEN","Darmstadt","Groß-Gerau","",""
"DE711","DE711","European Union","Germany","HESSEN","Darmstadt","Darmstadt, Kreisfreie Stadt","",""
"DE71D","DE71D","European Union","Germany","HESSEN","Darmstadt","Rheingau-Taunus-Kreis","",""
"DE71A","DE71A","European Union","Germany","HESSEN","Darmstadt","Main-Taunus-Kreis","",""
"DE71B","DE71B","European Union","Germany","HESSEN","Darmstadt","Odenwaldkreis","",""
"DE71C","DE71C","European Union","Germany","HESSEN","Darmstadt","Offenbach, Landkreis","",""
"DE718","DE718","European Union","Germany","HESSEN","Darmstadt","Hochtaunuskreis","",""
"DE71E","DE71E","European Union","Germany","HESSEN","Darmstadt","Wetteraukreis","",""
"DE714","DE714","European Union","Germany","HESSEN","Darmstadt","Wiesbaden, Kreisfreie Stadt","",""
"DE712","DE712","European Union","Germany","HESSEN","Darmstadt","Frankfurt am Main, Kreisfreie Stadt","",""
"DE716","DE716","European Union","Germany","HESSEN","Darmstadt","Darmstadt-Dieburg","",""
"DE715","DE715","European Union","Germany","HESSEN","Darmstadt","Bergstraße","",""
"DE724","DE724","European Union","Germany","HESSEN","Gießen","Marburg-Biedenkopf","",""
"DE721","DE721","European Union","Germany","HESSEN","Gießen","Gießen, Landkreis","",""
"DE723","DE723","European Union","Germany","HESSEN","Gießen","Limburg-Weilburg","",""
"DE722","DE722","European Union","Germany","HESSEN","Gießen","Lahn-Dill-Kreis","",""
"DE725","DE725","European Union","Germany","HESSEN","Gießen","Vogelsbergkreis","",""
"DE733","DE733","European Union","Germany","HESSEN","Kassel","Hersfeld-Rotenburg","",""
"DE734","DE734","European Union","Germany","HESSEN","Kassel","Kassel, Landkreis","",""
"DE735","DE735","European Union","Germany","HESSEN","Kassel","Schwalm-Eder-Kreis","",""
"DE736","DE736","European Union","Germany","HESSEN","Kassel","Waldeck-Frankenberg","",""
"DE737","DE737","European Union","Germany","HESSEN","Kassel","Werra-Meißner-Kreis","",""
"DE731","DE731","European Union","Germany","HESSEN","Kassel","Kassel, Kreisfreie Stadt","",""
"DE732","DE732","European Union","Germany","HESSEN","Kassel","Fulda","",""
"DE808","DE808","European Union","Germany","MECKLENBURG-VORPOMMERN","Mecklenburg-Vorpommern","Demmin","",""
"DE80D","DE80D","European Union","Germany","MECKLENBURG-VORPOMMERN","Mecklenburg-Vorpommern","Nordvorpommern","",""
"DE80E","DE80E","European Union","Germany","MECKLENBURG-VORPOMMERN","Mecklenburg-Vorpommern","Nordwestmecklenburg","",""
"DE80C","DE80C","European Union","Germany","MECKLENBURG-VORPOMMERN","Mecklenburg-Vorpommern","Müritz","",""
"DE804","DE804","European Union","Germany","MECKLENBURG-VORPOMMERN","Mecklenburg-Vorpommern","Schwerin, Kreisfreie Stadt","",""
"DE805","DE805","European Union","Germany","MECKLENBURG-VORPOMMERN","Mecklenburg-Vorpommern","Stralsund, Kreisfreie Stadt","",""
"DE803","DE803","European Union","Germany","MECKLENBURG-VORPOMMERN","Mecklenburg-Vorpommern","Rostock, Kreisfreie Stadt","",""
"DE80I","DE80I","European Union","Germany","MECKLENBURG-VORPOMMERN","Mecklenburg-Vorpommern","Uecker-Randow","",""
"DE809","DE809","European Union","Germany","MECKLENBURG-VORPOMMERN","Mecklenburg-Vorpommern","Güstrow","",""
"DE801","DE801","European Union","Germany","MECKLENBURG-VORPOMMERN","Mecklenburg-Vorpommern","Greifswald, Kreisfreie Stadt","",""
"DE807","DE807","European Union","Germany","MECKLENBURG-VORPOMMERN","Mecklenburg-Vorpommern","Bad Doberan","",""
"DE802","DE802","European Union","Germany","MECKLENBURG-VORPOMMERN","Mecklenburg-Vorpommern","Neubrandenburg, Kreisfreie Stadt","",""
"DE80G","DE80G","European Union","Germany","MECKLENBURG-VORPOMMERN","Mecklenburg-Vorpommern","Parchim","",""
"DE806","DE806","European Union","Germany","MECKLENBURG-VORPOMMERN","Mecklenburg-Vorpommern","Wismar, Kreisfreie Stadt","",""
"DE80H","DE80H","European Union","Germany","MECKLENBURG-VORPOMMERN","Mecklenburg-Vorpommern","Rügen","",""
"DE80F","DE80F","European Union","Germany","MECKLENBURG-VORPOMMERN","Mecklenburg-Vorpommern","Ostvorpommern","",""
"DE80A","DE80A","European Union","Germany","MECKLENBURG-VORPOMMERN","Mecklenburg-Vorpommern","Ludwigslust","",""
"DE80B","DE80B","European Union","Germany","MECKLENBURG-VORPOMMERN","Mecklenburg-Vorpommern","Mecklenburg-Strelitz","",""
"DE917","DE917","European Union","Germany","NIEDERSACHSEN","Braunschweig","Helmstedt","",""
"DE916","DE916","European Union","Germany","NIEDERSACHSEN","Braunschweig","Goslar","",""
"DE913","DE913","European Union","Germany","NIEDERSACHSEN","Braunschweig","Wolfsburg, Kreisfreie Stadt","",""
"DE91B","DE91B","European Union","Germany","NIEDERSACHSEN","Braunschweig","Wolfenbüttel","",""
"DE91A","DE91A","European Union","Germany","NIEDERSACHSEN","Braunschweig","Peine","",""
"DE911","DE911","European Union","Germany","NIEDERSACHSEN","Braunschweig","Braunschweig, Kreisfreie Stadt","",""
"DE919","DE919","European Union","Germany","NIEDERSACHSEN","Braunschweig","Osterode am Harz","",""
"DE915","DE915","European Union","Germany","NIEDERSACHSEN","Braunschweig","Göttingen","",""
"DE918","DE918","European Union","Germany","NIEDERSACHSEN","Braunschweig","Northeim","",""
"DE914","DE914","European Union","Germany","NIEDERSACHSEN","Braunschweig","Gifhorn","",""
"DE912","DE912","European Union","Germany","NIEDERSACHSEN","Braunschweig","Salzgitter, Kreisfreie Stadt","",""
"DE925","DE925","European Union","Germany","NIEDERSACHSEN","Hannover","Hildesheim","",""
"DE923","DE923","European Union","Germany","NIEDERSACHSEN","Hannover","Hameln-Pyrmont","",""
"DE929","DE929","European Union","Germany","NIEDERSACHSEN","Hannover","Region Hannover","",""
"DE922","DE922","European Union","Germany","NIEDERSACHSEN","Hannover","Diepholz","",""
"DE928","DE928","European Union","Germany","NIEDERSACHSEN","Hannover","Schaumburg","",""
"DE927","DE927","European Union","Germany","NIEDERSACHSEN","Hannover","Nienburg (Weser)","",""
"DE926","DE926","European Union","Germany","NIEDERSACHSEN","Hannover","Holzminden","",""
"DE931","DE931","European Union","Germany","NIEDERSACHSEN","Lüneburg","Celle","",""
"DE937","DE937","European Union","Germany","NIEDERSACHSEN","Lüneburg","Rotenburg (Wümme)","",""
"DE932","DE932","European Union","Germany","NIEDERSACHSEN","Lüneburg","Cuxhaven","",""
"DE93B","DE93B","European Union","Germany","NIEDERSACHSEN","Lüneburg","Verden","",""
"DE935","DE935","European Union","Germany","NIEDERSACHSEN","Lüneburg","Lüneburg, Landkreis","",""
"DE938","DE938","European Union","Germany","NIEDERSACHSEN","Lüneburg","Soltau-Fallingbostel","",""
"DE934","DE934","European Union","Germany","NIEDERSACHSEN","Lüneburg","Lüchow-Dannenberg","",""
"DE936","DE936","European Union","Germany","NIEDERSACHSEN","Lüneburg","Osterholz","",""
"DE93A","DE93A","European Union","Germany","NIEDERSACHSEN","Lüneburg","Uelzen","",""
"DE933","DE933","European Union","Germany","NIEDERSACHSEN","Lüneburg","Harburg","",""
"DE939","DE939","European Union","Germany","NIEDERSACHSEN","Lüneburg","Stade","",""
"DE945","DE945","European Union","Germany","NIEDERSACHSEN","Weser-Ems","Wilhelmshaven, Kreisfreie Stadt","",""
"DE946","DE946","European Union","Germany","NIEDERSACHSEN","Weser-Ems","Ammerland","",""
"DE94B","DE94B","European Union","Germany","NIEDERSACHSEN","Weser-Ems","Grafschaft Bentheim","",""
"DE941","DE941","European Union","Germany","NIEDERSACHSEN","Weser-Ems","Delmenhorst, Kreisfreie Stadt","",""
"DE94E","DE94E","European Union","Germany","NIEDERSACHSEN","Weser-Ems","Osnabrück, Landkreis","",""
"DE94F","DE94F","European Union","Germany","NIEDERSACHSEN","Weser-Ems","Vechta","",""
"DE94G","DE94G","European Union","Germany","NIEDERSACHSEN","Weser-Ems","Wesermarsch","",""
"DE944","DE944","European Union","Germany","NIEDERSACHSEN","Weser-Ems","Osnabrück, Kreisfreie Stadt","",""
"DE94A","DE94A","European Union","Germany","NIEDERSACHSEN","Weser-Ems","Friesland (D)","",""
"DE947","DE947","European Union","Germany","NIEDERSACHSEN","Weser-Ems","Aurich","",""
"DE94H","DE94H","European Union","Germany","NIEDERSACHSEN","Weser-Ems","Wittmund","",""
"DE943","DE943","European Union","Germany","NIEDERSACHSEN","Weser-Ems","Oldenburg (Oldenburg), Kreisfreie Stadt","",""
"DE949","DE949","European Union","Germany","NIEDERSACHSEN","Weser-Ems","Emsland","",""
"DE942","DE942","European Union","Germany","NIEDERSACHSEN","Weser-Ems","Emden, Kreisfreie Stadt","",""
"DE94D","DE94D","European Union","Germany","NIEDERSACHSEN","Weser-Ems","Oldenburg, Landkreis","",""
"DE948","DE948","European Union","Germany","NIEDERSACHSEN","Weser-Ems","Cloppenburg","",""
"DE94C","DE94C","European Union","Germany","NIEDERSACHSEN","Weser-Ems","Leer","",""
"DEA1E","DEA1E","European Union","Germany","NORDRHEIN-WESTFALEN","Düsseldorf","Viersen","",""
"DEA13","DEA13","European Union","Germany","NORDRHEIN-WESTFALEN","Düsseldorf","Essen, Kreisfreie Stadt","",""
"DEA12","DEA12","European Union","Germany","NORDRHEIN-WESTFALEN","Düsseldorf","Duisburg, Kreisfreie Stadt","",""
"DEA1D","DEA1D","European Union","Germany","NORDRHEIN-WESTFALEN","Düsseldorf","Rhein-Kreis Neuss","",""
"DEA16","DEA16","European Union","Germany","NORDRHEIN-WESTFALEN","Düsseldorf","Mülheim an der Ruhr,Kreisfreie Stadt","",""
"DEA14","DEA14","European Union","Germany","NORDRHEIN-WESTFALEN","Düsseldorf","Krefeld, Kreisfreie Stadt","",""
"DEA11","DEA11","European Union","Germany","NORDRHEIN-WESTFALEN","Düsseldorf","Düsseldorf, Kreisfreie Stadt","",""
"DEA15","DEA15","European Union","Germany","NORDRHEIN-WESTFALEN","Düsseldorf","Mönchengladbach, Kreisfreie Stadt","",""
"DEA19","DEA19","European Union","Germany","NORDRHEIN-WESTFALEN","Düsseldorf","Solingen, Kreisfreie Stadt","",""
"DEA1F","DEA1F","European Union","Germany","NORDRHEIN-WESTFALEN","Düsseldorf","Wesel","",""
"DEA1B","DEA1B","European Union","Germany","NORDRHEIN-WESTFALEN","Düsseldorf","Kleve","",""
"DEA1C","DEA1C","European Union","Germany","NORDRHEIN-WESTFALEN","Düsseldorf","Mettmann","",""
"DEA1A","DEA1A","European Union","Germany","NORDRHEIN-WESTFALEN","Düsseldorf","Wuppertal, Kreisfreie Stadt","",""
"DEA17","DEA17","European Union","Germany","NORDRHEIN-WESTFALEN","Düsseldorf","Oberhausen, Kreisfreie Stadt","",""
"DEA18","DEA18","European Union","Germany","NORDRHEIN-WESTFALEN","Düsseldorf","Remscheid, Kreisfreie Stadt","",""
"DEA21","DEA21","European Union","Germany","NORDRHEIN-WESTFALEN","Köln","Aachen, Kreisfreie Stadt","",""
"DEA25","DEA25","European Union","Germany","NORDRHEIN-WESTFALEN","Köln","Aachen, Kreis","",""
"DEA24","DEA24","European Union","Germany","NORDRHEIN-WESTFALEN","Köln","Leverkusen, Kreisfreie Stadt","",""
"DEA28","DEA28","European Union","Germany","NORDRHEIN-WESTFALEN","Köln","Euskirchen","",""
"DEA22","DEA22","European Union","Germany","NORDRHEIN-WESTFALEN","Köln","Bonn, Kreisfreie Stadt","",""
"DEA23","DEA23","European Union","Germany","NORDRHEIN-WESTFALEN","Köln","Köln, Kreisfreie Stadt","",""
"DEA26","DEA26","European Union","Germany","NORDRHEIN-WESTFALEN","Köln","Düren","",""
"DEA2C","DEA2C","European Union","Germany","NORDRHEIN-WESTFALEN","Köln","Rhein-Sieg-Kreis","",""
"DEA27","DEA27","European Union","Germany","NORDRHEIN-WESTFALEN","Köln","Rhein-Erft-Kreis","",""
"DEA29","DEA29","European Union","Germany","NORDRHEIN-WESTFALEN","Köln","Heinsberg","",""
"DEA2A","DEA2A","European Union","Germany","NORDRHEIN-WESTFALEN","Köln","Oberbergischer Kreis","",""
"DEA2B","DEA2B","European Union","Germany","NORDRHEIN-WESTFALEN","Köln","Rheinisch-Bergischer Kreis","",""
"DEA31","DEA31","European Union","Germany","NORDRHEIN-WESTFALEN","Münster","Bottrop, Kreisfreie Stadt","",""
"DEA36","DEA36","European Union","Germany","NORDRHEIN-WESTFALEN","Münster","Recklinghausen","",""
"DEA35","DEA35","European Union","Germany","NORDRHEIN-WESTFALEN","Münster","Coesfeld","",""
"DEA38","DEA38","European Union","Germany","NORDRHEIN-WESTFALEN","Münster","Warendorf","",""
"DEA34","DEA34","European Union","Germany","NORDRHEIN-WESTFALEN","Münster","Borken","",""
"DEA37","DEA37","European Union","Germany","NORDRHEIN-WESTFALEN","Münster","Steinfurt","",""
"DEA33","DEA33","European Union","Germany","NORDRHEIN-WESTFALEN","Münster","Münster, Kreisfreie Stadt","",""
"DEA32","DEA32","European Union","Germany","NORDRHEIN-WESTFALEN","Münster","Gelsenkirchen, Kreisfreie Stadt","",""
"DEA44","DEA44","European Union","Germany","NORDRHEIN-WESTFALEN","Detmold","Höxter","",""
"DEA47","DEA47","European Union","Germany","NORDRHEIN-WESTFALEN","Detmold","Paderborn","",""
"DEA45","DEA45","European Union","Germany","NORDRHEIN-WESTFALEN","Detmold","Lippe","",""
"DEA46","DEA46","European Union","Germany","NORDRHEIN-WESTFALEN","Detmold","Minden-Lübbecke","",""
"DEA41","DEA41","European Union","Germany","NORDRHEIN-WESTFALEN","Detmold","Bielefeld, Kreisfreie Stadt","",""
"DEA42","DEA42","European Union","Germany","NORDRHEIN-WESTFALEN","Detmold","Gütersloh","",""
"DEA43","DEA43","European Union","Germany","NORDRHEIN-WESTFALEN","Detmold","Herford","",""
"DEA51","DEA51","European Union","Germany","NORDRHEIN-WESTFALEN","Arnsberg","Bochum, Kreisfreie Stadt","",""
"DEA58","DEA58","European Union","Germany","NORDRHEIN-WESTFALEN","Arnsberg","Märkischer Kreis","",""
"DEA54","DEA54","European Union","Germany","NORDRHEIN-WESTFALEN","Arnsberg","Hamm, Kreisfreie Stadt","",""
"DEA53","DEA53","European Union","Germany","NORDRHEIN-WESTFALEN","Arnsberg","Hagen, Kreisfreie Stadt","",""
"DEA57","DEA57","European Union","Germany","NORDRHEIN-WESTFALEN","Arnsberg","Hochsauerlandkreis","",""
"DEA5A","DEA5A","European Union","Germany","NORDRHEIN-WESTFALEN","Arnsberg","Siegen-Wittgenstein","",""
"DEA55","DEA55","European Union","Germany","NORDRHEIN-WESTFALEN","Arnsberg","Herne, Kreisfreie Stadt","",""
"DEA52","DEA52","European Union","Germany","NORDRHEIN-WESTFALEN","Arnsberg","Dortmund, Kreisfreie Stadt","",""
"DEA5C","DEA5C","European Union","Germany","NORDRHEIN-WESTFALEN","Arnsberg","Unna","",""
"DEA5B","DEA5B","European Union","Germany","NORDRHEIN-WESTFALEN","Arnsberg","Soest","",""
"DEA56","DEA56","European Union","Germany","NORDRHEIN-WESTFALEN","Arnsberg","Ennepe-Ruhr-Kreis","",""
"DEA59","DEA59","European Union","Germany","NORDRHEIN-WESTFALEN","Arnsberg","Olpe","",""
"DEB13","DEB13","European Union","Germany","RHEINLAND-PFALZ","Koblenz","Altenkirchen (Westerwald)","",""
"DEB18","DEB18","European Union","Germany","RHEINLAND-PFALZ","Koblenz","Neuwied","",""
"DEB11","DEB11","European Union","Germany","RHEINLAND-PFALZ","Koblenz","Koblenz, Kreisfreie Stadt","",""
"DEB12","DEB12","European Union","Germany","RHEINLAND-PFALZ","Koblenz","Ahrweiler","",""
"DEB1B","DEB1B","European Union","Germany","RHEINLAND-PFALZ","Koblenz","Westerwaldkreis","",""
"DEB14","DEB14","European Union","Germany","RHEINLAND-PFALZ","Koblenz","Bad Kreuznach","",""
"DEB16","DEB16","European Union","Germany","RHEINLAND-PFALZ","Koblenz","Cochem-Zell","",""
"DEB17","DEB17","European Union","Germany","RHEINLAND-PFALZ","Koblenz","Mayen-Koblenz","",""
"DEB1A","DEB1A","European Union","Germany","RHEINLAND-PFALZ","Koblenz","Rhein-Lahn-Kreis","",""
"DEB19","DEB19","European Union","Germany","RHEINLAND-PFALZ","Koblenz","Rhein-Hunsrück-Kreis","",""
"DEB15","DEB15","European Union","Germany","RHEINLAND-PFALZ","Koblenz","Birkenfeld","",""
"DEB21","DEB21","European Union","Germany","RHEINLAND-PFALZ","Trier","Trier, Kreisfreie Stadt","",""
"DEB22","DEB22","European Union","Germany","RHEINLAND-PFALZ","Trier","Bernkastel-Wittlich","",""
"DEB24","DEB24","European Union","Germany","RHEINLAND-PFALZ","Trier","Daun","",""
"DEB25","DEB25","European Union","Germany","RHEINLAND-PFALZ","Trier","Trier-Saarburg","",""
"DEB23","DEB23","European Union","Germany","RHEINLAND-PFALZ","Trier","Bitburg-Prüm","",""
"DEB3B","DEB3B","European Union","Germany","RHEINLAND-PFALZ","Rheinhessen-Pfalz","Alzey-Worms","",""
"DEB31","DEB31","European Union","Germany","RHEINLAND-PFALZ","Rheinhessen-Pfalz","Frankenthal (Pfalz), Kreisfreie Stadt","",""
"DEB36","DEB36","European Union","Germany","RHEINLAND-PFALZ","Rheinhessen-Pfalz","Neustadt an der Weinstraße, Kreisfreie Stadt","",""
"DEB3A","DEB3A","European Union","Germany","RHEINLAND-PFALZ","Rheinhessen-Pfalz","Zweibrücken, Kreisfreie Stadt","",""
"DEB3C","DEB3C","European Union","Germany","RHEINLAND-PFALZ","Rheinhessen-Pfalz","Bad Dürkheim","",""
"DEB39","DEB39","European Union","Germany","RHEINLAND-PFALZ","Rheinhessen-Pfalz","Worms, Kreisfreie Stadt","",""
"DEB3F","DEB3F","European Union","Germany","RHEINLAND-PFALZ","Rheinhessen-Pfalz","Kaiserslautern, Landkreis","",""
"DEB3G","DEB3G","European Union","Germany","RHEINLAND-PFALZ","Rheinhessen-Pfalz","Kusel","",""
"DEB32","DEB32","European Union","Germany","RHEINLAND-PFALZ","Rheinhessen-Pfalz","Kaiserslautern, Kreisfreie Stadt","",""
"DEB3E","DEB3E","European Union","Germany","RHEINLAND-PFALZ","Rheinhessen-Pfalz","Germersheim","",""
"DEB3J","DEB3J","European Union","Germany","RHEINLAND-PFALZ","Rheinhessen-Pfalz","Mainz-Bingen","",""
"DEB3K","DEB3K","European Union","Germany","RHEINLAND-PFALZ","Rheinhessen-Pfalz","Südwestpfalz","",""
"DEB3D","DEB3D","European Union","Germany","RHEINLAND-PFALZ","Rheinhessen-Pfalz","Donnersbergkreis","",""
"DEB35","DEB35","European Union","Germany","RHEINLAND-PFALZ","Rheinhessen-Pfalz","Mainz, Kreisfreie Stadt","",""
"DEB3I","DEB3I","European Union","Germany","RHEINLAND-PFALZ","Rheinhessen-Pfalz","Rhein-Pfalz-Kreis","",""
"DEB34","DEB34","European Union","Germany","RHEINLAND-PFALZ","Rheinhessen-Pfalz","Ludwigshafen am Rhein, Kreisfreie Stadt","",""
"DEB3H","DEB3H","European Union","Germany","RHEINLAND-PFALZ","Rheinhessen-Pfalz","Südliche Weinstraße","",""
"DEB38","DEB38","European Union","Germany","RHEINLAND-PFALZ","Rheinhessen-Pfalz","Speyer, Kreisfreie Stadt","",""
"DEB33","DEB33","European Union","Germany","RHEINLAND-PFALZ","Rheinhessen-Pfalz","Landau in der Pfalz, Kreisfreie Stadt","",""
"DEB37","DEB37","European Union","Germany","RHEINLAND-PFALZ","Rheinhessen-Pfalz","Pirmasens, Kreisfreie Stadt","",""
"DEC05","DEC05","European Union","Germany","SAARLAND","Saarland","Saarpfalz-Kreis","",""
"DEC04","DEC04","European Union","Germany","SAARLAND","Saarland","Saarlouis","",""
"DEC02","DEC02","European Union","Germany","SAARLAND","Saarland","Merzig-Wadern","",""
"DEC06","DEC06","European Union","Germany","SAARLAND","Saarland","St. Wendel","",""
"DEC03","DEC03","European Union","Germany","SAARLAND","Saarland","Neunkirchen","",""
"DEC01","DEC01","European Union","Germany","SAARLAND","Saarland","Stadtverband Saarbrücken","",""
"DED15","DED15","European Union","Germany","SACHSEN","Chemnitz","Chemnitzer Land","",""
"DED11","DED11","European Union","Germany","SACHSEN","Chemnitz","Chemnitz, Kreisfreie Stadt","",""
"DED18","DED18","European Union","Germany","SACHSEN","Chemnitz","Mittlerer Erzgebirgskreis","",""
"DED16","DED16","European Union","Germany","SACHSEN","Chemnitz","Freiberg","",""
"DED1B","DED1B","European Union","Germany","SACHSEN","Chemnitz","Aue-Schwarzenberg","",""
"DED17","DED17","European Union","Germany","SACHSEN","Chemnitz","Vogtlandkreis","",""
"DED1C","DED1C","European Union","Germany","SACHSEN","Chemnitz","Zwickauer Land","",""
"DED12","DED12","European Union","Germany","SACHSEN","Chemnitz","Plauen, Kreisfreie Stadt","",""
"DED13","DED13","European Union","Germany","SACHSEN","Chemnitz","Zwickau, Kreisfreie Stadt","",""
"DED14","DED14","European Union","Germany","SACHSEN","Chemnitz","Annaberg","",""
"DED1A","DED1A","European Union","Germany","SACHSEN","Chemnitz","Stollberg","",""
"DED19","DED19","European Union","Germany","SACHSEN","Chemnitz","Mittweida","",""
"DED28","DED28","European Union","Germany","SACHSEN","Dresden","Löbau-Zittau","",""
"DED23","DED23","European Union","Germany","SACHSEN","Dresden","Hoyerswerda, Kreisfreie Stadt","",""
"DED24","DED24","European Union","Germany","SACHSEN","Dresden","Bautzen","",""
"DED27","DED27","European Union","Germany","SACHSEN","Dresden","Riesa-Großenhain","",""
"DED26","DED26","European Union","Germany","SACHSEN","Dresden","Niederschlesischer Oberlausitzkreis","",""
"DED2B","DED2B","European Union","Germany","SACHSEN","Dresden","Kamenz","",""
"DED22","DED22","European Union","Germany","SACHSEN","Dresden","Görlitz, Kreisfreie Stadt","",""
"DED2A","DED2A","European Union","Germany","SACHSEN","Dresden","Weißeritzkreis","",""
"DED25","DED25","European Union","Germany","SACHSEN","Dresden","Meißen","",""
"DED29","DED29","European Union","Germany","SACHSEN","Dresden","Sächsische Schweiz","",""
"DED21","DED21","European Union","Germany","SACHSEN","Dresden","Dresden, Kreisfreie Stadt","",""
"DED34","DED34","European Union","Germany","SACHSEN","Leipzig","Leipziger Land","",""
"DED35","DED35","European Union","Germany","SACHSEN","Leipzig","Muldentalkreis","",""
"DED33","DED33","European Union","Germany","SACHSEN","Leipzig","Döbeln","",""
"DED32","DED32","European Union","Germany","SACHSEN","Leipzig","Delitzsch","",""
"DED36","DED36","European Union","Germany","SACHSEN","Leipzig","Torgau-Oschatz","",""
"DED31","DED31","European Union","Germany","SACHSEN","Leipzig","Leipzig, Kreisfreie Stadt","",""
"DEE04","DEE04","European Union","Germany","SACHSEN-ANHALT","Sachsen-Anhalt","Altmarkkreis Salzwedel","",""
"DEE09","DEE09","European Union","Germany","SACHSEN-ANHALT","Sachsen-Anhalt","Harz","",""
"DEE0B","DEE0B","European Union","Germany","SACHSEN-ANHALT","Sachsen-Anhalt","Saalekreis","",""
"DEE08","DEE08","European Union","Germany","SACHSEN-ANHALT","Sachsen-Anhalt","Burgenland (D)","",""
"DEE0E","DEE0E","European Union","Germany","SACHSEN-ANHALT","Sachsen-Anhalt","Wittenberg","",""
"DEE03","DEE03","European Union","Germany","SACHSEN-ANHALT","Sachsen-Anhalt","Magdeburg, Kreisfreie Stadt","",""
"DEE07","DEE07","European Union","Germany","SACHSEN-ANHALT","Sachsen-Anhalt","Börde","",""
"DEE0C","DEE0C","European Union","Germany","SACHSEN-ANHALT","Sachsen-Anhalt","Salzland","",""
"DEE0A","DEE0A","European Union","Germany","SACHSEN-ANHALT","Sachsen-Anhalt","Mansfeld-Südharz","",""
"DEE06","DEE06","European Union","Germany","SACHSEN-ANHALT","Sachsen-Anhalt","Jerichower Land","",""
"DEE05","DEE05","European Union","Germany","SACHSEN-ANHALT","Sachsen-Anhalt","Anhalt-Bitterfeld","",""
"DEE01","DEE01","European Union","Germany","SACHSEN-ANHALT","Sachsen-Anhalt","Dessau-Roßlau, Kreisfreie Stadt","",""
"DEE02","DEE02","European Union","Germany","SACHSEN-ANHALT","Sachsen-Anhalt","Halle (Saale), Kreisfreie Stadt","",""
"DEE0D","DEE0D","European Union","Germany","SACHSEN-ANHALT","Sachsen-Anhalt","Stendal","",""
"DEF04","DEF04","European Union","Germany","SCHLESWIG-HOLSTEIN","Schleswig-Holstein","Neumünster, Kreisfreie Stadt","",""
"DEF03","DEF03","European Union","Germany","SCHLESWIG-HOLSTEIN","Schleswig-Holstein","Lübeck, Kreisfreie Stadt","",""
"DEF08","DEF08","European Union","Germany","SCHLESWIG-HOLSTEIN","Schleswig-Holstein","Ostholstein","",""
"DEF09","DEF09","European Union","Germany","SCHLESWIG-HOLSTEIN","Schleswig-Holstein","Pinneberg","",""
"DEF0B","DEF0B","European Union","Germany","SCHLESWIG-HOLSTEIN","Schleswig-Holstein","Rendsburg-Eckernförde","",""
"DEF0D","DEF0D","European Union","Germany","SCHLESWIG-HOLSTEIN","Schleswig-Holstein","Segeberg","",""
"DEF0C","DEF0C","European Union","Germany","SCHLESWIG-HOLSTEIN","Schleswig-Holstein","Schleswig-Flensburg","",""
"DEF0A","DEF0A","European Union","Germany","SCHLESWIG-HOLSTEIN","Schleswig-Holstein","Plön","",""
"DEF02","DEF02","European Union","Germany","SCHLESWIG-HOLSTEIN","Schleswig-Holstein","Kiel, Kreisfreie Stadt","",""
"DEF07","DEF07","European Union","Germany","SCHLESWIG-HOLSTEIN","Schleswig-Holstein","Nordfriesland","",""
"DEF0E","DEF0E","European Union","Germany","SCHLESWIG-HOLSTEIN","Schleswig-Holstein","Steinburg","",""
"DEF05","DEF05","European Union","Germany","SCHLESWIG-HOLSTEIN","Schleswig-Holstein","Dithmarschen","",""
"DEF01","DEF01","European Union","Germany","SCHLESWIG-HOLSTEIN","Schleswig-Holstein","Flensburg, Kreisfreie Stadt","",""
"DEF0F","DEF0F","European Union","Germany","SCHLESWIG-HOLSTEIN","Schleswig-Holstein","Stormarn","",""
"DEF06","DEF06","European Union","Germany","SCHLESWIG-HOLSTEIN","Schleswig-Holstein","Herzogtum Lauenburg","",""
"DEG07","DEG07","European Union","Germany","THÜRINGEN","Thüringen","Nordhausen","",""
"DEG09","DEG09","European Union","Germany","THÜRINGEN","Thüringen","Unstrut-Hainich-Kreis","",""
"DEG0A","DEG0A","European Union","Germany","THÜRINGEN","Thüringen","Kyffhäuserkreis","",""
"DEG0C","DEG0C","European Union","Germany","THÜRINGEN","Thüringen","Gotha","",""
"DEG02","DEG02","European Union","Germany","THÜRINGEN","Thüringen","Gera, Kreisfreie Stadt","",""
"DEG0I","DEG0I","European Union","Germany","THÜRINGEN","Thüringen","Saalfeld-Rudolstadt","",""
"DEG0B","DEG0B","European Union","Germany","THÜRINGEN","Thüringen","Schmalkalden-Meiningen","",""
"DEG0L","DEG0L","European Union","Germany","THÜRINGEN","Thüringen","Greiz","",""
"DEG0M","DEG0M","European Union","Germany","THÜRINGEN","Thüringen","Altenburger Land","",""
"DEG0N","DEG0N","European Union","Germany","THÜRINGEN","Thüringen","Eisenach, Kreisfreie Stadt","",""
"DEG0P","DEG0P","European Union","Germany","THÜRINGEN","Thüringen","Wartburgkreis","",""
"DEG0F","DEG0F","European Union","Germany","THÜRINGEN","Thüringen","Ilm-Kreis","",""
"DEG0G","DEG0G","European Union","Germany","THÜRINGEN","Thüringen","Weimarer Land","",""
"DEG0D","DEG0D","European Union","Germany","THÜRINGEN","Thüringen","Sömmerda","",""
"DEG0E","DEG0E","European Union","Germany","THÜRINGEN","Thüringen","Hildburghausen","",""
"DEG03","DEG03","European Union","Germany","THÜRINGEN","Thüringen","Jena, Kreisfreie Stadt","",""
"DEG04","DEG04","European Union","Germany","THÜRINGEN","Thüringen","Suhl, Kreisfreie Stadt","",""
"DEG0H","DEG0H","European Union","Germany","THÜRINGEN","Thüringen","Sonneberg","",""
"DEG06","DEG06","European Union","Germany","THÜRINGEN","Thüringen","Eichsfeld","",""
"DEG05","DEG05","European Union","Germany","THÜRINGEN","Thüringen","Weimar, Kreisfreie Stadt","",""
"DEG01","DEG01","European Union","Germany","THÜRINGEN","Thüringen","Erfurt, Kreisfreie Stadt","",""
"DEG0J","DEG0J","European Union","Germany","THÜRINGEN","Thüringen","Saale-Holzland-Kreis","",""
"DEG0K","DEG0K","European Union","Germany","THÜRINGEN","Thüringen","Saale-Orla-Kreis","",""
"DEZZZ","DEZZZ","European Union","Germany","EXTRA-REGIO","Extra-Regio","Extra-Regio","",""
"DK012","DK012","European Union","Denmark","DANMARK","Hovedstaden","Københavns omegn","",""
"DK011","DK011","European Union","Denmark","DANMARK","Hovedstaden","Byen København","",""
"DK014","DK014","European Union","Denmark","DANMARK","Hovedstaden","Bornholm","",""
"DK013","DK013","European Union","Denmark","DANMARK","Hovedstaden","Nordsjælland","",""
"DK022","DK022","European Union","Denmark","DANMARK","Sjælland","Vest- og Sydsjælland","",""
"DK021","DK021","European Union","Denmark","DANMARK","Sjælland","Østsjælland","",""
"DK031","DK031","European Union","Denmark","DANMARK","Syddanmark","Fyn","",""
"DK032","DK032","European Union","Denmark","DANMARK","Syddanmark","Sydjylland","",""
"DK042","DK042","European Union","Denmark","DANMARK","Midtjylland","Østjylland","",""
"DK041","DK041","European Union","Denmark","DANMARK","Midtjylland","Vestjylland","",""
"DK050","DK050","European Union","Denmark","DANMARK","Nordjylland","Nordjylland","",""
"DKZZZ","DKZZZ","European Union","Denmark","EXTRA-REGIO","Extra-Regio","Extra-Regio","",""
"EE001","EE001","European Union","Estonia","EESTI","Eesti","Põhja-Eesti","",""
"EE006","EE006","European Union","Estonia","EESTI","Eesti","Kesk-Eesti","",""
"EE007","EE007","European Union","Estonia","EESTI","Eesti","Kirde-Eesti","",""
"EE004","EE004","European Union","Estonia","EESTI","Eesti","Lääne-Eesti","",""
"EE008","EE008","European Union","Estonia","EESTI","Eesti","Lõuna-Eesti","",""
"EEZZZ","EEZZZ","European Union","Estonia","EXTRA-REGIO","Extra-Regio","Extra-Regio","",""
"ES114","ES114","European Union","Spain","NOROESTE","Galicia","Pontevedra","",""
"ES113","ES113","European Union","Spain","NOROESTE","Galicia","Ourense","",""
"ES112","ES112","European Union","Spain","NOROESTE","Galicia","Lugo","",""
"ES111","ES111","European Union","Spain","NOROESTE","Galicia","A Coruña","",""
"ES120","ES120","European Union","Spain","NOROESTE","Principado de Asturias","Asturias","",""
"ES130","ES130","European Union","Spain","NOROESTE","Cantabria","Cantabria","",""
"ES212","ES212","European Union","Spain","NORESTE","País Vasco","Guipúzcoa","",""
"ES211","ES211","European Union","Spain","NORESTE","País Vasco","Álava","",""
"ES213","ES213","European Union","Spain","NORESTE","País Vasco","Vizcaya","",""
"ES220","ES220","European Union","Spain","NORESTE","Comunidad Foral de Navarra","Navarra","",""
"ES230","ES230","European Union","Spain","NORESTE","La Rioja","La Rioja","",""
"ES243","ES243","European Union","Spain","NORESTE","Aragón","Zaragoza","",""
"ES242","ES242","European Union","Spain","NORESTE","Aragón","Teruel","",""
"ES241","ES241","European Union","Spain","NORESTE","Aragón","Huesca","",""
"ES300","ES300","European Union","Spain","COMUNIDAD DE MADRID","Comunidad de Madrid","Madrid","",""
"ES418","ES418","European Union","Spain","CENTRO (E)","Castilla y León","Valladolid","",""
"ES417","ES417","European Union","Spain","CENTRO (E)","Castilla y León","Soria","",""
"ES413","ES413","European Union","Spain","CENTRO (E)","Castilla y León","León","",""
"ES415","ES415","European Union","Spain","CENTRO (E)","Castilla y León","Salamanca","",""
"ES416","ES416","European Union","Spain","CENTRO (E)","Castilla y León","Segovia","",""
"ES412","ES412","European Union","Spain","CENTRO (E)","Castilla y León","Burgos","",""
"ES411","ES411","European Union","Spain","CENTRO (E)","Castilla y León","Ávila","",""
"ES414","ES414","European Union","Spain","CENTRO (E)","Castilla y León","Palencia","",""
"ES419","ES419","European Union","Spain","CENTRO (E)","Castilla y León","Zamora","",""
"ES422","ES422","European Union","Spain","CENTRO (E)","Castilla-La Mancha","Ciudad Real","",""
"ES423","ES423","European Union","Spain","CENTRO (E)","Castilla-La Mancha","Cuenca","",""
"ES425","ES425","European Union","Spain","CENTRO (E)","Castilla-La Mancha","Toledo","",""
"ES421","ES421","European Union","Spain","CENTRO (E)","Castilla-La Mancha","Albacete","",""
"ES424","ES424","European Union","Spain","CENTRO (E)","Castilla-La Mancha","Guadalajara","",""
"ES432","ES432","European Union","Spain","CENTRO (E)","Extremadura","Cáceres","",""
"ES431","ES431","European Union","Spain","CENTRO (E)","Extremadura","Badajoz","",""
"ES514","ES514","European Union","Spain","ESTE","Cataluña","Tarragona","",""
"ES513","ES513","European Union","Spain","ESTE","Cataluña","Lleida","",""
"ES512","ES512","European Union","Spain","ESTE","Cataluña","Girona","",""
"ES511","ES511","European Union","Spain","ESTE","Cataluña","Barcelona","",""
"ES522","ES522","European Union","Spain","ESTE","Comunidad Valenciana","Castellón / Castelló","",""
"ES523","ES523","European Union","Spain","ESTE","Comunidad Valenciana","Valencia / València","",""
"ES521","ES521","European Union","Spain","ESTE","Comunidad Valenciana","Alicante / Alacant","",""
"ES532","ES532","European Union","Spain","ESTE","Illes Balears","Mallorca","",""
"ES533","ES533","European Union","Spain","ESTE","Illes Balears","Menorca","",""
"ES531","ES531","European Union","Spain","ESTE","Illes Balears","Eivissa y Formentera","",""
"ES615","ES615","European Union","Spain","SUR","Andalucía","Huelva","",""
"ES616","ES616","European Union","Spain","SUR","Andalucía","Jaén","",""
"ES614","ES614","European Union","Spain","SUR","Andalucía","Granada","",""
"ES611","ES611","European Union","Spain","SUR","Andalucía","Almería","",""
"ES618","ES618","European Union","Spain","SUR","Andalucía","Sevilla","",""
"ES617","ES617","European Union","Spain","SUR","Andalucía","Málaga","",""
"ES612","ES612","European Union","Spain","SUR","Andalucía","Cádiz","",""
"ES613","ES613","European Union","Spain","SUR","Andalucía","Córdoba","",""
"ES620","ES620","European Union","Spain","SUR","Región de Murcia","Murcia","",""
"ES630","ES630","European Union","Spain","SUR","Ciudad Autónoma de Ceuta","Ceuta","",""
"ES640","ES640","European Union","Spain","SUR","Ciudad Autónoma de Melilla","Melilla","",""
"ES704","ES704","European Union","Spain","CANARIAS","Canarias","Fuerteventura","",""
"ES707","ES707","European Union","Spain","CANARIAS","Canarias","La Palma","",""
"ES705","ES705","European Union","Spain","CANARIAS","Canarias","Gran Canaria","",""
"ES703","ES703","European Union","Spain","CANARIAS","Canarias","El Hierro","",""
"ES708","ES708","European Union","Spain","CANARIAS","Canarias","Lanzarote","",""
"ES706","ES706","European Union","Spain","CANARIAS","Canarias","La Gomera","",""
"ES709","ES709","European Union","Spain","CANARIAS","Canarias","Tenerife","",""
"ESZZZ","ESZZZ","European Union","Spain","EXTRA-REGIO","Extra-Regio","Extra-Regio","",""
"FI132","FI132","European Union","Finland","MANNER-SUOMI","Itä-Suomi","Pohjois-Savo","",""
"FI134","FI134","European Union","Finland","MANNER-SUOMI","Itä-Suomi","Kainuu","",""
"FI133","FI133","European Union","Finland","MANNER-SUOMI","Itä-Suomi","Pohjois-Karjala","",""
"FI131","FI131","European Union","Finland","MANNER-SUOMI","Itä-Suomi","Etelä-Savo","",""
"FI186","FI186","European Union","Finland","MANNER-SUOMI","Etelä-Suomi","Kymenlaakso","",""
"FI187","FI187","European Union","Finland","MANNER-SUOMI","Etelä-Suomi","Etelä-Karjala","",""
"FI185","FI185","European Union","Finland","MANNER-SUOMI","Etelä-Suomi","Päijät-Häme","",""
"FI184","FI184","European Union","Finland","MANNER-SUOMI","Etelä-Suomi","Kanta-Häme","",""
"FI181","FI181","European Union","Finland","MANNER-SUOMI","Etelä-Suomi","Uusimaa","",""
"FI182","FI182","European Union","Finland","MANNER-SUOMI","Etelä-Suomi","Itä-Uusimaa","",""
"FI183","FI183","European Union","Finland","MANNER-SUOMI","Etelä-Suomi","Varsinais-Suomi","",""
"FI197","FI197","European Union","Finland","MANNER-SUOMI","Länsi-Suomi","Pirkanmaa","",""
"FI193","FI193","European Union","Finland","MANNER-SUOMI","Länsi-Suomi","Keski-Suomi","",""
"FI194","FI194","European Union","Finland","MANNER-SUOMI","Länsi-Suomi","Etelä-Pohjanmaa","",""
"FI196","FI196","European Union","Finland","MANNER-SUOMI","Länsi-Suomi","Satakunta","",""
"FI195","FI195","European Union","Finland","MANNER-SUOMI","Länsi-Suomi","Pohjanmaa","",""
"FI1A1","FI1A1","European Union","Finland","MANNER-SUOMI","Pohjois-Suomi","Keski-Pohjanmaa","",""
"FI1A2","FI1A2","European Union","Finland","MANNER-SUOMI","Pohjois-Suomi","Pohjois-Pohjanmaa","",""
"FI1A3","FI1A3","European Union","Finland","MANNER-SUOMI","Pohjois-Suomi","Lappi","",""
"FI200","FI200","European Union","Finland","ÅLAND","Åland","Åland","",""
"FIZZZ","FIZZZ","European Union","Finland","EXTRA-REGIO","Extra-Regio","Extra-Regio","",""
"FR108","FR108","European Union","France","ÎLE DE FRANCE","Île de France","Val-d'Oise","",""
"FR104","FR104","European Union","France","ÎLE DE FRANCE","Île de France","Essonne","",""
"FR102","FR102","European Union","France","ÎLE DE FRANCE","Île de France","Seine-et-Marne","",""
"FR103","FR103","European Union","France","ÎLE DE FRANCE","Île de France","Yvelines","",""
"FR105","FR105","European Union","France","ÎLE DE FRANCE","Île de France","Hauts-de-Seine","",""
"FR106","FR106","European Union","France","ÎLE DE FRANCE","Île de France","Seine-Saint-Denis","",""
"FR107","FR107","European Union","France","ÎLE DE FRANCE","Île de France","Val-de-Marne","",""
"FR101","FR101","European Union","France","ÎLE DE FRANCE","Île de France","Paris","",""
"FR214","FR214","European Union","France","BASSIN PARISIEN","Champagne-Ardenne","Haute-Marne","",""
"FR212","FR212","European Union","France","BASSIN PARISIEN","Champagne-Ardenne","Aube","",""
"FR213","FR213","European Union","France","BASSIN PARISIEN","Champagne-Ardenne","Marne","",""
"FR211","FR211","European Union","France","BASSIN PARISIEN","Champagne-Ardenne","Ardennes","",""
"FR221","FR221","European Union","France","BASSIN PARISIEN","Picardie","Aisne","",""
"FR222","FR222","European Union","France","BASSIN PARISIEN","Picardie","Oise","",""
"FR223","FR223","European Union","France","BASSIN PARISIEN","Picardie","Somme","",""
"FR231","FR231","European Union","France","BASSIN PARISIEN","Haute-Normandie","Eure","",""
"FR232","FR232","European Union","France","BASSIN PARISIEN","Haute-Normandie","Seine-Maritime","",""
"FR243","FR243","European Union","France","BASSIN PARISIEN","Centre","Indre","",""
"FR244","FR244","European Union","France","BASSIN PARISIEN","Centre","Indre-et-Loire","",""
"FR241","FR241","European Union","France","BASSIN PARISIEN","Centre","Cher","",""
"FR242","FR242","European Union","France","BASSIN PARISIEN","Centre","Eure-et-Loir","",""
"FR245","FR245","European Union","France","BASSIN PARISIEN","Centre","Loir-et-Cher","",""
"FR246","FR246","European Union","France","BASSIN PARISIEN","Centre","Loiret","",""
"FR253","FR253","European Union","France","BASSIN PARISIEN","Basse-Normandie","Orne","",""
"FR252","FR252","European Union","France","BASSIN PARISIEN","Basse-Normandie","Manche","",""
"FR251","FR251","European Union","France","BASSIN PARISIEN","Basse-Normandie","Calvados","",""
"FR263","FR263","European Union","France","BASSIN PARISIEN","Bourgogne","Saône-et-Loire","",""
"FR261","FR261","European Union","France","BASSIN PARISIEN","Bourgogne","Côte-d'Or","",""
"FR264","FR264","European Union","France","BASSIN PARISIEN","Bourgogne","Yonne","",""
"FR262","FR262","European Union","France","BASSIN PARISIEN","Bourgogne","Nièvre","",""
"FR302","FR302","European Union","France","NORD - PAS-DE-CALAIS","Nord - Pas-de-Calais","Pas-de-Calais","",""
"FR301","FR301","European Union","France","NORD - PAS-DE-CALAIS","Nord - Pas-de-Calais","Nord","",""
"FR413","FR413","European Union","France","EST","Lorraine","Moselle","",""
"FR411","FR411","European Union","France","EST","Lorraine","Meurthe-et-Moselle","",""
"FR412","FR412","European Union","France","EST","Lorraine","Meuse","",""
"FR414","FR414","European Union","France","EST","Lorraine","Vosges","",""
"FR421","FR421","European Union","France","EST","Alsace","Bas-Rhin","",""
"FR422","FR422","European Union","France","EST","Alsace","Haut-Rhin","",""
"FR434","FR434","European Union","France","EST","Franche-Comté","Territoire de Belfort","",""
"FR433","FR433","European Union","France","EST","Franche-Comté","Haute-Saône","",""
"FR432","FR432","European Union","France","EST","Franche-Comté","Jura","",""
"FR431","FR431","European Union","France","EST","Franche-Comté","Doubs","",""
"FR511","FR511","European Union","France","OUEST","Pays de la Loire","Loire-Atlantique","",""
"FR512","FR512","European Union","France","OUEST","Pays de la Loire","Maine-et-Loire","",""
"FR515","FR515","European Union","France","OUEST","Pays de la Loire","Vendée","",""
"FR514","FR514","European Union","France","OUEST","Pays de la Loire","Sarthe","",""
"FR513","FR513","European Union","France","OUEST","Pays de la Loire","Mayenne","",""
"FR522","FR522","European Union","France","OUEST","Bretagne","Finistère","",""
"FR523","FR523","European Union","France","OUEST","Bretagne","Ille-et-Vilaine","",""
"FR521","FR521","European Union","France","OUEST","Bretagne","Côtes-d'Armor","",""
"FR524","FR524","European Union","France","OUEST","Bretagne","Morbihan","",""
"FR531","FR531","European Union","France","OUEST","Poitou-Charentes","Charente","",""
"FR534","FR534","European Union","France","OUEST","Poitou-Charentes","Vienne","",""
"FR532","FR532","European Union","France","OUEST","Poitou-Charentes","Charente-Maritime","",""
"FR533","FR533","European Union","France","OUEST","Poitou-Charentes","Deux-Sèvres","",""
"FR615","FR615","European Union","France","SUD-OUEST","Aquitaine","Pyrénées-Atlantiques","",""
"FR611","FR611","European Union","France","SUD-OUEST","Aquitaine","Dordogne","",""
"FR613","FR613","European Union","France","SUD-OUEST","Aquitaine","Landes","",""
"FR614","FR614","European Union","France","SUD-OUEST","Aquitaine","Lot-et-Garonne","",""
"FR612","FR612","European Union","France","SUD-OUEST","Aquitaine","Gironde","",""
"FR621","FR621","European Union","France","SUD-OUEST","Midi-Pyrénées","Ariège","",""
"FR625","FR625","European Union","France","SUD-OUEST","Midi-Pyrénées","Lot","",""
"FR626","FR626","European Union","France","SUD-OUEST","Midi-Pyrénées","Hautes-Pyrénées","",""
"FR628","FR628","European Union","France","SUD-OUEST","Midi-Pyrénées","Tarn-et-Garonne","",""
"FR627","FR627","European Union","France","SUD-OUEST","Midi-Pyrénées","Tarn","",""
"FR624","FR624","European Union","France","SUD-OUEST","Midi-Pyrénées","Gers","",""
"FR622","FR622","European Union","France","SUD-OUEST","Midi-Pyrénées","Aveyron","",""
"FR623","FR623","European Union","France","SUD-OUEST","Midi-Pyrénées","Haute-Garonne","",""
"FR633","FR633","European Union","France","SUD-OUEST","Limousin","Haute-Vienne","",""
"FR632","FR632","European Union","France","SUD-OUEST","Limousin","Creuse","",""
"FR631","FR631","European Union","France","SUD-OUEST","Limousin","Corrèze","",""
"FR711","FR711","European Union","France","CENTRE-EST","Rhône-Alpes","Ain","",""
"FR713","FR713","European Union","France","CENTRE-EST","Rhône-Alpes","Drôme","",""
"FR718","FR718","European Union","France","CENTRE-EST","Rhône-Alpes","Haute-Savoie","",""
"FR717","FR717","European Union","France","CENTRE-EST","Rhône-Alpes","Savoie","",""
"FR715","FR715","European Union","France","CENTRE-EST","Rhône-Alpes","Loire","",""
"FR712","FR712","European Union","France","CENTRE-EST","Rhône-Alpes","Ardèche","",""
"FR716","FR716","European Union","France","CENTRE-EST","Rhône-Alpes","Rhône","",""
"FR714","FR714","European Union","France","CENTRE-EST","Rhône-Alpes","Isère","",""
"FR724","FR724","European Union","France","CENTRE-EST","Auvergne","Puy-de-Dôme","",""
"FR723","FR723","European Union","France","CENTRE-EST","Auvergne","Haute-Loire","",""
"FR721","FR721","European Union","France","CENTRE-EST","Auvergne","Allier","",""
"FR722","FR722","European Union","France","CENTRE-EST","Auvergne","Cantal","",""
"FR813","FR813","European Union","France","MÉDITERRANÉE","Languedoc-Roussillon","Hérault","",""
"FR812","FR812","European Union","France","MÉDITERRANÉE","Languedoc-Roussillon","Gard","",""
"FR815","FR815","European Union","France","MÉDITERRANÉE","Languedoc-Roussillon","Pyrénées-Orientales","",""
"FR811","FR811","European Union","France","MÉDITERRANÉE","Languedoc-Roussillon","Aude","",""
"FR814","FR814","European Union","France","MÉDITERRANÉE","Languedoc-Roussillon","Lozère","",""
"FR822","FR822","European Union","France","MÉDITERRANÉE","Provence-Alpes-Côte d'Azur","Hautes-Alpes","",""
"FR823","FR823","European Union","France","MÉDITERRANÉE","Provence-Alpes-Côte d'Azur","Alpes-Maritimes","",""
"FR825","FR825","European Union","France","MÉDITERRANÉE","Provence-Alpes-Côte d'Azur","Var","",""
"FR826","FR826","European Union","France","MÉDITERRANÉE","Provence-Alpes-Côte d'Azur","Vaucluse","",""
"FR824","FR824","European Union","France","MÉDITERRANÉE","Provence-Alpes-Côte d'Azur","Bouches-du-Rhône","",""
"FR821","FR821","European Union","France","MÉDITERRANÉE","Provence-Alpes-Côte d'Azur","Alpes-de-Haute-Provence","",""
"FR832","FR832","European Union","France","MÉDITERRANÉE","Corse","Haute-Corse","",""
"FR831","FR831","European Union","France","MÉDITERRANÉE","Corse","Corse-du-Sud","",""
"FR910","FR910","European Union","France","DÉPARTEMENTS D'OUTRE-MER","Guadeloupe","Guadeloupe","",""
"FR920","FR920","European Union","France","DÉPARTEMENTS D'OUTRE-MER","Martinique","Martinique","",""
"FR930","FR930","European Union","France","DÉPARTEMENTS D'OUTRE-MER","Guyane","Guyane","",""
"FR940","FR940","European Union","France","DÉPARTEMENTS D'OUTRE-MER","Réunion","Réunion","",""
"FRZZZ","FRZZZ","European Union","France","EXTRA-REGIO","Extra-Regio","Extra-Regio","",""
"GR115","GR115","European Union","Greece","VOREIA ELLADA","Anatoliki Makedonia, Thraki","Kavala","",""
"GR111","GR111","European Union","Greece","VOREIA ELLADA","Anatoliki Makedonia, Thraki","Evros","",""
"GR113","GR113","European Union","Greece","VOREIA ELLADA","Anatoliki Makedonia, Thraki","Rodopi","",""
"GR114","GR114","European Union","Greece","VOREIA ELLADA","Anatoliki Makedonia, Thraki","Drama","",""
"GR112","GR112","European Union","Greece","VOREIA ELLADA","Anatoliki Makedonia, Thraki","Xanthi","",""
"GR127","GR127","European Union","Greece","VOREIA ELLADA","Kentriki Makedonia","Chalkidiki","",""
"GR125","GR125","European Union","Greece","VOREIA ELLADA","Kentriki Makedonia","Pieria","",""
"GR126","GR126","European Union","Greece","VOREIA ELLADA","Kentriki Makedonia","Serres","",""
"GR123","GR123","European Union","Greece","VOREIA ELLADA","Kentriki Makedonia","Kilkis","",""
"GR124","GR124","European Union","Greece","VOREIA ELLADA","Kentriki Makedonia","Pella","",""
"GR122","GR122","European Union","Greece","VOREIA ELLADA","Kentriki Makedonia","Thessaloniki","",""
"GR121","GR121","European Union","Greece","VOREIA ELLADA","Kentriki Makedonia","Imathia","",""
"GR131","GR131","European Union","Greece","VOREIA ELLADA","Dytiki Makedonia","Grevena","",""
"GR133","GR133","European Union","Greece","VOREIA ELLADA","Dytiki Makedonia","Kozani","",""
"GR132","GR132","European Union","Greece","VOREIA ELLADA","Dytiki Makedonia","Kastoria","",""
"GR134","GR134","European Union","Greece","VOREIA ELLADA","Dytiki Makedonia","Florina","",""
"GR142","GR142","European Union","Greece","VOREIA ELLADA","Thessalia","Larisa","",""
"GR143","GR143","European Union","Greece","VOREIA ELLADA","Thessalia","Magnisia","",""
"GR141","GR141","European Union","Greece","VOREIA ELLADA","Thessalia","Karditsa","",""
"GR144","GR144","European Union","Greece","VOREIA ELLADA","Thessalia","Trikala","",""
"GR214","GR214","European Union","Greece","KENTRIKI ELLADA","Ipeiros","Preveza","",""
"GR213","GR213","European Union","Greece","KENTRIKI ELLADA","Ipeiros","Ioannina","",""
"GR212","GR212","European Union","Greece","KENTRIKI ELLADA","Ipeiros","Thesprotia","",""
"GR211","GR211","European Union","Greece","KENTRIKI ELLADA","Ipeiros","Arta","",""
"GR223","GR223","European Union","Greece","KENTRIKI ELLADA","Ionia Nisia","Kefallinia","",""
"GR221","GR221","European Union","Greece","KENTRIKI ELLADA","Ionia Nisia","Zakynthos","",""
"GR222","GR222","European Union","Greece","KENTRIKI ELLADA","Ionia Nisia","Kerkyra","",""
"GR224","GR224","European Union","Greece","KENTRIKI ELLADA","Ionia Nisia","Lefkada","",""
"GR233","GR233","European Union","Greece","KENTRIKI ELLADA","Dytiki Ellada","Ileia","",""
"GR232","GR232","European Union","Greece","KENTRIKI ELLADA","Dytiki Ellada","Achaia","",""
"GR231","GR231","European Union","Greece","KENTRIKI ELLADA","Dytiki Ellada","Aitoloakarnania","",""
"GR241","GR241","European Union","Greece","KENTRIKI ELLADA","Sterea Ellada","Voiotia","",""
"GR242","GR242","European Union","Greece","KENTRIKI ELLADA","Sterea Ellada","Evvoia","",""
"GR244","GR244","European Union","Greece","KENTRIKI ELLADA","Sterea Ellada","Fthiotida","",""
"GR245","GR245","European Union","Greece","KENTRIKI ELLADA","Sterea Ellada","Fokida","",""
"GR243","GR243","European Union","Greece","KENTRIKI ELLADA","Sterea Ellada","Evrytania","",""
"GR255","GR255","European Union","Greece","KENTRIKI ELLADA","Peloponnisos","Messinia","",""
"GR254","GR254","European Union","Greece","KENTRIKI ELLADA","Peloponnisos","Lakonia","",""
"GR253","GR253","European Union","Greece","KENTRIKI ELLADA","Peloponnisos","Korinthia","",""
"GR252","GR252","European Union","Greece","KENTRIKI ELLADA","Peloponnisos","Arkadia","",""
"GR251","GR251","European Union","Greece","KENTRIKI ELLADA","Peloponnisos","Argolida","",""
"GR300","GR300","European Union","Greece","ATTIKI","Attiki","Attiki","",""
"GR412","GR412","European Union","Greece","NISIA AIGAIOU, KRITI","Voreio Aigaio","Samos","",""
"GR413","GR413","European Union","Greece","NISIA AIGAIOU, KRITI","Voreio Aigaio","Chios","",""
"GR411","GR411","European Union","Greece","NISIA AIGAIOU, KRITI","Voreio Aigaio","Lesvos","",""
"GR422","GR422","European Union","Greece","NISIA AIGAIOU, KRITI","Notio Aigaio","Kyklades","",""
"GR421","GR421","European Union","Greece","NISIA AIGAIOU, KRITI","Notio Aigaio","Dodekanisos","",""
"GR433","GR433","European Union","Greece","NISIA AIGAIOU, KRITI","Kriti","Rethymni","",""
"GR434","GR434","European Union","Greece","NISIA AIGAIOU, KRITI","Kriti","Chania","",""
"GR431","GR431","European Union","Greece","NISIA AIGAIOU, KRITI","Kriti","Irakleio","",""
"GR432","GR432","European Union","Greece","NISIA AIGAIOU, KRITI","Kriti","Lasithi","",""
"GRZZZ","GRZZZ","European Union","Greece","EXTRA-REGIO","Extra-Regio","Extra-Regio","",""
"HR016","HR016","European Union","Croatia","Croatia","Sjeverozapadna Hrvatska","Međimurska županija","",""
"HR015","HR015","European Union","Croatia","Croatia","Sjeverozapadna Hrvatska","Koprivničko-križevačka županija","",""
"HR014","HR014","European Union","Croatia","Croatia","Sjeverozapadna Hrvatska","Varaždinska županija","",""
"HR012","HR012","European Union","Croatia","Croatia","Sjeverozapadna Hrvatska","Zagrebačka županija","",""
"HR013","HR013","European Union","Croatia","Croatia","Sjeverozapadna Hrvatska","Krapinsko-zagorska županija","",""
"HR011","HR011","European Union","Croatia","Croatia","Sjeverozapadna Hrvatska","Grad Zagreb","",""
"HR016","HR016","European Union","Croatia","Dubrovačko-neretvanska županija","Sjeverozapadna Hrvatska","Međimurska županija","",""
"HR015","HR015","European Union","Croatia","Dubrovačko-neretvanska županija","Sjeverozapadna Hrvatska","Koprivničko-križevačka županija","",""
"HR014","HR014","European Union","Croatia","Dubrovačko-neretvanska županija","Sjeverozapadna Hrvatska","Varaždinska županija","",""
"HR012","HR012","European Union","Croatia","Dubrovačko-neretvanska županija","Sjeverozapadna Hrvatska","Zagrebačka županija","",""
"HR013","HR013","European Union","Croatia","Dubrovačko-neretvanska županija","Sjeverozapadna Hrvatska","Krapinsko-zagorska županija","",""
"HR011","HR011","European Union","Croatia","Dubrovačko-neretvanska županija","Sjeverozapadna Hrvatska","Grad Zagreb","",""
"HR023","HR023","European Union","Croatia","Croatia","Središnja i Istočna (Panonska)","Požeško-slavonska županija","",""
"HR025","HR025","European Union","Croatia","Croatia","Središnja i Istočna (Panonska)","Osječko-baranjska županija","",""
"HR022","HR022","European Union","Croatia","Croatia","Središnja i Istočna (Panonska)","Virovitičko-podravska županija","",""
"HR026","HR026","European Union","Croatia","Croatia","Središnja i Istočna (Panonska)","Vukovarsko-srijemska županija","",""
"HR028","HR028","European Union","Croatia","Croatia","Središnja i Istočna (Panonska)","Sisačko-moslavačka županija","",""
"HR027","HR027","European Union","Croatia","Croatia","Središnja i Istočna (Panonska)","Karlovačka županija","",""
"HR021","HR021","European Union","Croatia","Croatia","Središnja i Istočna (Panonska)","Bjelovarsko-bilogorska županija","",""
"HR024","HR024","European Union","Croatia","Croatia","Središnja i Istočna (Panonska)","Brodsko-posavska županija","",""
"HR023","HR023","European Union","Croatia","Dubrovačko-neretvanska županija","Središnja i Istočna (Panonska)","Požeško-slavonska županija","",""
"HR025","HR025","European Union","Croatia","Dubrovačko-neretvanska županija","Središnja i Istočna (Panonska)","Osječko-baranjska županija","",""
"HR022","HR022","European Union","Croatia","Dubrovačko-neretvanska županija","Središnja i Istočna (Panonska)","Virovitičko-podravska županija","",""
"HR026","HR026","European Union","Croatia","Dubrovačko-neretvanska županija","Središnja i Istočna (Panonska)","Vukovarsko-srijemska županija","",""
"HR028","HR028","European Union","Croatia","Dubrovačko-neretvanska županija","Središnja i Istočna (Panonska)","Sisačko-moslavačka županija","",""
"HR027","HR027","European Union","Croatia","Dubrovačko-neretvanska županija","Središnja i Istočna (Panonska)","Karlovačka županija","",""
"HR021","HR021","European Union","Croatia","Dubrovačko-neretvanska županija","Središnja i Istočna (Panonska)","Bjelovarsko-bilogorska županija","",""
"HR024","HR024","European Union","Croatia","Dubrovačko-neretvanska županija","Središnja i Istočna (Panonska)","Brodsko-posavska županija","",""
"HR031","HR031","European Union","Croatia","Croatia","Jadranska Hrvatska","Primorsko-goranska županija","",""
"HR035","HR035","European Union","Croatia","Croatia","Jadranska Hrvatska","Splitsko-dalmatinska županija","",""
"HR036","HR036","European Union","Croatia","Croatia","Jadranska Hrvatska","Istarska županija","",""
"HR034","HR034","European Union","Croatia","Croatia","Jadranska Hrvatska","Šibensko-kninska županija","",""
"HR033","HR033","European Union","Croatia","Croatia","Jadranska Hrvatska","Zadarska županija","",""
"HR032","HR032","European Union","Croatia","Croatia","Jadranska Hrvatska","Ličko-senjska županija","",""
"HR031","HR031","European Union","Croatia","Dubrovačko-neretvanska županija","Jadranska Hrvatska","Primorsko-goranska županija","",""
"HR035","HR035","European Union","Croatia","Dubrovačko-neretvanska županija","Jadranska Hrvatska","Splitsko-dalmatinska županija","",""
"HR036","HR036","European Union","Croatia","Dubrovačko-neretvanska županija","Jadranska Hrvatska","Istarska županija","",""
"HR034","HR034","European Union","Croatia","Dubrovačko-neretvanska županija","Jadranska Hrvatska","Šibensko-kninska županija","",""
"HR033","HR033","European Union","Croatia","Dubrovačko-neretvanska županija","Jadranska Hrvatska","Zadarska županija","",""
"HR032","HR032","European Union","Croatia","Dubrovačko-neretvanska županija","Jadranska Hrvatska","Ličko-senjska županija","",""
"HU102","HU102","European Union","Hungary","KÖZÉP-MAGYARORSZÁG","Közép-Magyarország","Pest","",""
"HU101","HU101","European Union","Hungary","KÖZÉP-MAGYARORSZÁG","Közép-Magyarország","Budapest","",""
"HU213","HU213","European Union","Hungary","DUNÁNTÚL","Közép-Dunántúl","Veszprém","",""
"HU212","HU212","European Union","Hungary","DUNÁNTÚL","Közép-Dunántúl","Komárom-Esztergom","",""
"HU211","HU211","European Union","Hungary","DUNÁNTÚL","Közép-Dunántúl","Fejér","",""
"HU222","HU222","European Union","Hungary","DUNÁNTÚL","Nyugat-Dunántúl","Vas","",""
"HU221","HU221","European Union","Hungary","DUNÁNTÚL","Nyugat-Dunántúl","Győr-Moson-Sopron","",""
"HU223","HU223","European Union","Hungary","DUNÁNTÚL","Nyugat-Dunántúl","Zala","",""
"HU233","HU233","European Union","Hungary","DUNÁNTÚL","Dél-Dunántúl","Tolna","",""
"HU231","HU231","European Union","Hungary","DUNÁNTÚL","Dél-Dunántúl","Baranya","",""
"HU232","HU232","European Union","Hungary","DUNÁNTÚL","Dél-Dunántúl","Somogy","",""
"HU311","HU311","European Union","Hungary","ALFÖLD ÉS ÉSZAK","Észak-Magyarország","Borsod-Abaúj-Zemplén","",""
"HU313","HU313","European Union","Hungary","ALFÖLD ÉS ÉSZAK","Észak-Magyarország","Nógrád","",""
"HU312","HU312","European Union","Hungary","ALFÖLD ÉS ÉSZAK","Észak-Magyarország","Heves","",""
"HU322","HU322","European Union","Hungary","ALFÖLD ÉS ÉSZAK","Észak-Alföld","Jász-Nagykun-Szolnok","",""
"HU323","HU323","European Union","Hungary","ALFÖLD ÉS ÉSZAK","Észak-Alföld","Szabolcs-Szatmár-Bereg","",""
"HU321","HU321","European Union","Hungary","ALFÖLD ÉS ÉSZAK","Észak-Alföld","Hajdú-Bihar","",""
"HU333","HU333","European Union","Hungary","ALFÖLD ÉS ÉSZAK","Dél-Alföld","Csongrád","",""
"HU331","HU331","European Union","Hungary","ALFÖLD ÉS ÉSZAK","Dél-Alföld","Bács-Kiskun","",""
"HU332","HU332","European Union","Hungary","ALFÖLD ÉS ÉSZAK","Dél-Alföld","Békés","",""
"HUZZZ","HUZZZ","European Union","Hungary","EXTRA-REGIO","Extra-Regio","Extra-Regio","",""
"IE011","IE011","European Union","Ireland  ","IRELAND","Border, Midland and Western","Border","",""
"IE012","IE012","European Union","Ireland  ","IRELAND","Border, Midland and Western","Midland","",""
"IE013","IE013","European Union","Ireland  ","IRELAND","Border, Midland and Western","West","",""
"IE024","IE024","European Union","Ireland  ","IRELAND","Southern and Eastern","South-East (IRL)","",""
"IE023","IE023","European Union","Ireland  ","IRELAND","Southern and Eastern","Mid-West","",""
"IE021","IE021","European Union","Ireland  ","IRELAND","Southern and Eastern","Dublin","",""
"IE025","IE025","European Union","Ireland  ","IRELAND","Southern and Eastern","South-West (IRL)","",""
"IE022","IE022","European Union","Ireland  ","IRELAND","Southern and Eastern","Mid-East","",""
"IEZZZ","IEZZZ","European Union","Ireland  ","EXTRA-REGIO","Extra-Regio","Extra-Regio","",""
"ITC18","ITC18","European Union","Italy","NORD-OVEST","Piemonte","Alessandria","",""
"ITC13","ITC13","European Union","Italy","NORD-OVEST","Piemonte","Biella","",""
"ITC14","ITC14","European Union","Italy","NORD-OVEST","Piemonte","Verbano-Cusio-Ossola","",""
"ITC17","ITC17","European Union","Italy","NORD-OVEST","Piemonte","Asti","",""
"ITC15","ITC15","European Union","Italy","NORD-OVEST","Piemonte","Novara","",""
"ITC11","ITC11","European Union","Italy","NORD-OVEST","Piemonte","Torino","",""
"ITC12","ITC12","European Union","Italy","NORD-OVEST","Piemonte","Vercelli","",""
"ITC16","ITC16","European Union","Italy","NORD-OVEST","Piemonte","Cuneo","",""
"ITC20","ITC20","European Union","Italy","NORD-OVEST","Valle d'Aosta/Vallée d'Aoste","Valle d'Aosta/Vallée d'Aoste","",""
"ITC33","ITC33","European Union","Italy","NORD-OVEST","Liguria","Genova","",""
"ITC34","ITC34","European Union","Italy","NORD-OVEST","Liguria","La Spezia","",""
"ITC32","ITC32","European Union","Italy","NORD-OVEST","Liguria","Savona","",""
"ITC31","ITC31","European Union","Italy","NORD-OVEST","Liguria","Imperia","",""
"ITC46","ITC46","European Union","Italy","NORD-OVEST","Lombardia","Bergamo","",""
"ITC41","ITC41","European Union","Italy","NORD-OVEST","Lombardia","Varese","",""
"ITC42","ITC42","European Union","Italy","NORD-OVEST","Lombardia","Como","",""
"ITC43","ITC43","European Union","Italy","NORD-OVEST","Lombardia","Lecco","",""
"ITC45","ITC45","European Union","Italy","NORD-OVEST","Lombardia","Milano","",""
"ITC49","ITC49","European Union","Italy","NORD-OVEST","Lombardia","Lodi","",""
"ITC47","ITC47","European Union","Italy","NORD-OVEST","Lombardia","Brescia","",""
"ITC4B","ITC4B","European Union","Italy","NORD-OVEST","Lombardia","Mantova","",""
"ITC44","ITC44","European Union","Italy","NORD-OVEST","Lombardia","Sondrio","",""
"ITC4A","ITC4A","European Union","Italy","NORD-OVEST","Lombardia","Cremona","",""
"ITC48","ITC48","European Union","Italy","NORD-OVEST","Lombardia","Pavia","",""
"ITD10","ITD10","European Union","Italy","NORD-EST","Provincia Autonoma Bolzano/Bozen","Bolzano-Bozen","",""
"ITD20","ITD20","European Union","Italy","NORD-EST","Provincia Autonoma Trento","Trento","",""
"ITD36","ITD36","European Union","Italy","NORD-EST","Veneto","Padova","",""
"ITD31","ITD31","European Union","Italy","NORD-EST","Veneto","Verona","",""
"ITD32","ITD32","European Union","Italy","NORD-EST","Veneto","Vicenza","",""
"ITD33","ITD33","European Union","Italy","NORD-EST","Veneto","Belluno","",""
"ITD35","ITD35","European Union","Italy","NORD-EST","Veneto","Venezia","",""
"ITD34","ITD34","European Union","Italy","NORD-EST","Veneto","Treviso","",""
"ITD37","ITD37","European Union","Italy","NORD-EST","Veneto","Rovigo","",""
"ITD44","ITD44","European Union","Italy","NORD-EST","Friuli-Venezia Giulia","Trieste","",""
"ITD42","ITD42","European Union","Italy","NORD-EST","Friuli-Venezia Giulia","Udine","",""
"ITD41","ITD41","European Union","Italy","NORD-EST","Friuli-Venezia Giulia","Pordenone","",""
"ITD43","ITD43","European Union","Italy","NORD-EST","Friuli-Venezia Giulia","Gorizia","",""
"ITD52","ITD52","European Union","Italy","NORD-EST","Emilia-Romagna","Parma","",""
"ITD59","ITD59","European Union","Italy","NORD-EST","Emilia-Romagna","Rimini","",""
"ITD51","ITD51","European Union","Italy","NORD-EST","Emilia-Romagna","Piacenza","",""
"ITD58","ITD58","European Union","Italy","NORD-EST","Emilia-Romagna","Forlì-Cesena","",""
"ITD54","ITD54","European Union","Italy","NORD-EST","Emilia-Romagna","Modena","",""
"ITD55","ITD55","European Union","Italy","NORD-EST","Emilia-Romagna","Bologna","",""
"ITD56","ITD56","European Union","Italy","NORD-EST","Emilia-Romagna","Ferrara","",""
"ITD53","ITD53","European Union","Italy","NORD-EST","Emilia-Romagna","Reggio nell'Emilia","",""
"ITD57","ITD57","European Union","Italy","NORD-EST","Emilia-Romagna","Ravenna","",""
"ITE1A","ITE1A","European Union","Italy","CENTRO (I)","Toscana","Grosseto","",""
"ITE19","ITE19","European Union","Italy","CENTRO (I)","Toscana","Siena","",""
"ITE12","ITE12","European Union","Italy","CENTRO (I)","Toscana","Lucca","",""
"ITE17","ITE17","European Union","Italy","CENTRO (I)","Toscana","Pisa","",""
"ITE18","ITE18","European Union","Italy","CENTRO (I)","Toscana","Arezzo","",""
"ITE15","ITE15","European Union","Italy","CENTRO (I)","Toscana","Prato","",""
"ITE16","ITE16","European Union","Italy","CENTRO (I)","Toscana","Livorno","",""
"ITE13","ITE13","European Union","Italy","CENTRO (I)","Toscana","Pistoia","",""
"ITE11","ITE11","European Union","Italy","CENTRO (I)","Toscana","Massa-Carrara","",""
"ITE14","ITE14","European Union","Italy","CENTRO (I)","Toscana","Firenze","",""
"ITE22","ITE22","European Union","Italy","CENTRO (I)","Umbria","Terni","",""
"ITE21","ITE21","European Union","Italy","CENTRO (I)","Umbria","Perugia","",""
"ITE31","ITE31","European Union","Italy","CENTRO (I)","Marche","Pesaro e Urbino","",""
"ITE32","ITE32","European Union","Italy","CENTRO (I)","Marche","Ancona","",""
"ITE34","ITE34","European Union","Italy","CENTRO (I)","Marche","Ascoli Piceno","",""
"ITE33","ITE33","European Union","Italy","CENTRO (I)","Marche","Macerata","",""
"ITE45","ITE45","European Union","Italy","CENTRO (I)","Lazio","Frosinone","",""
"ITE41","ITE41","European Union","Italy","CENTRO (I)","Lazio","Viterbo","",""
"ITE43","ITE43","European Union","Italy","CENTRO (I)","Lazio","Roma","",""
"ITE44","ITE44","European Union","Italy","CENTRO (I)","Lazio","Latina","",""
"ITE42","ITE42","European Union","Italy","CENTRO (I)","Lazio","Rieti","",""
"ITF12","ITF12","European Union","Italy","SUD","Abruzzo","Teramo","",""
"ITF14","ITF14","European Union","Italy","SUD","Abruzzo","Chieti","",""
"ITF11","ITF11","European Union","Italy","SUD","Abruzzo","L'Aquila","",""
"ITF13","ITF13","European Union","Italy","SUD","Abruzzo","Pescara","",""
"ITF21","ITF21","European Union","Italy","SUD","Molise","Isernia","",""
"ITF22","ITF22","European Union","Italy","SUD","Molise","Campobasso","",""
"ITF35","ITF35","European Union","Italy","SUD","Campania","Salerno","",""
"ITF31","ITF31","European Union","Italy","SUD","Campania","Caserta","",""
"ITF33","ITF33","European Union","Italy","SUD","Campania","Napoli","",""
"ITF34","ITF34","European Union","Italy","SUD","Campania","Avellino","",""
"ITF32","ITF32","European Union","Italy","SUD","Campania","Benevento","",""
"ITF44","ITF44","European Union","Italy","SUD","Puglia","Brindisi","",""
"ITF42","ITF42","European Union","Italy","SUD","Puglia","Bari","",""
"ITF45","ITF45","European Union","Italy","SUD","Puglia","Lecce","",""
"ITF43","ITF43","European Union","Italy","SUD","Puglia","Taranto","",""
"ITF41","ITF41","European Union","Italy","SUD","Puglia","Foggia","",""
"ITF51","ITF51","European Union","Italy","SUD","Basilicata","Potenza","",""
"ITF52","ITF52","European Union","Italy","SUD","Basilicata","Matera","",""
"ITF61","ITF61","European Union","Italy","SUD","Calabria","Cosenza","",""
"ITF65","ITF65","European Union","Italy","SUD","Calabria","Reggio di Calabria","",""
"ITF62","ITF62","European Union","Italy","SUD","Calabria","Crotone","",""
"ITF64","ITF64","European Union","Italy","SUD","Calabria","Vibo Valentia","",""
"ITF63","ITF63","European Union","Italy","SUD","Calabria","Catanzaro","",""
"ITG18","ITG18","European Union","Italy","ISOLE","Sicilia","Ragusa","",""
"ITG19","ITG19","European Union","Italy","ISOLE","Sicilia","Siracusa","",""
"ITG17","ITG17","European Union","Italy","ISOLE","Sicilia","Catania","",""
"ITG13","ITG13","European Union","Italy","ISOLE","Sicilia","Messina","",""
"ITG14","ITG14","European Union","Italy","ISOLE","Sicilia","Agrigento","",""
"ITG15","ITG15","European Union","Italy","ISOLE","Sicilia","Caltanissetta","",""
"ITG12","ITG12","European Union","Italy","ISOLE","Sicilia","Palermo","",""
"ITG11","ITG11","European Union","Italy","ISOLE","Sicilia","Trapani","",""
"ITG16","ITG16","European Union","Italy","ISOLE","Sicilia","Enna","",""
"ITG2B","ITG2B","European Union","Italy","ISOLE","Sardegna","Medio Campidano","",""
"ITG2C","ITG2C","European Union","Italy","ISOLE","Sardegna","Carbonia-Iglesias","",""
"ITG25","ITG25","European Union","Italy","ISOLE","Sardegna","Sassari","",""
"ITG26","ITG26","European Union","Italy","ISOLE","Sardegna","Nuoro","",""
"ITG27","ITG27","European Union","Italy","ISOLE","Sardegna","Cagliari","",""
"ITG28","ITG28","European Union","Italy","ISOLE","Sardegna","Oristano","",""
"ITG29","ITG29","European Union","Italy","ISOLE","Sardegna","Olbia-Tempio","",""
"ITG2A","ITG2A","European Union","Italy","ISOLE","Sardegna","Ogliastra","",""
"ITZZZ","ITZZZ","European Union","Italy","EXTRA-REGIO","Extra-Regio","Extra-Regio","",""
"LT005","LT005","European Union","Lithuania","LIETUVA","Lietuva","Panevėžio apskritis","",""
"LT009","LT009","European Union","Lithuania","LIETUVA","Lietuva","Utenos apskritis","",""
"LT00A","LT00A","European Union","Lithuania","LIETUVA","Lietuva","Vilniaus apskritis","",""
"LT004","LT004","European Union","Lithuania","LIETUVA","Lietuva","Marijampolės apskritis","",""
"LT006","LT006","European Union","Lithuania","LIETUVA","Lietuva","Šiaulių apskritis","",""
"LT007","LT007","European Union","Lithuania","LIETUVA","Lietuva","Tauragės apskritis","",""
"LT008","LT008","European Union","Lithuania","LIETUVA","Lietuva","Telšių apskritis","",""
"LT001","LT001","European Union","Lithuania","LIETUVA","Lietuva","Alytaus apskritis","",""
"LT002","LT002","European Union","Lithuania","LIETUVA","Lietuva","Kauno apskritis","",""
"LT003","LT003","European Union","Lithuania","LIETUVA","Lietuva","Klaipėdos apskritis","",""
"LTZZZ","LTZZZ","European Union","Lithuania","EXTRA-REGIO","Extra-Regio","Extra-Regio","",""
"LU000","LU000","European Union","Luxembourg   ","LUXEMBOURG (GRAND-DUCHÉ)","Luxembourg (Grand-Duché)","Luxembourg (Grand-Duché)","",""
"LUZZZ","LUZZZ","European Union","Luxembourg   ","EXTRA-REGIO","Extra-Regio","Extra-Regio","",""
"LV007","LV007","European Union","Latvia","LATVIJA","Latvija","Pierīga","",""
"LV005","LV005","European Union","Latvia","LATVIJA","Latvija","Latgale","",""
"LV006","LV006","European Union","Latvia","LATVIJA","Latvija","Rīga","",""
"LV003","LV003","European Union","Latvia","LATVIJA","Latvija","Kurzeme","",""
"LV009","LV009","European Union","Latvia","LATVIJA","Latvija","Zemgale","",""
"LV008","LV008","European Union","Latvia","LATVIJA","Latvija","Vidzeme","",""
"LVZZZ","LVZZZ","European Union","Latvia","EXTRA-REGIO","Extra-Regio","Extra-Regio","",""
"MT002","MT002","European Union","Malta ","Malta","Malta","Gozo and Comino / Għawdex u Kemmuna","",""
"MT001","MT001","European Union","Malta ","Malta","Malta","Malta","",""
"MTZZZ","MTZZZ","European Union","Malta ","EXTRA-REGIO","Extra-Regio","Extra-Regio","",""
"NL113","NL113","European Union","Netherlands","NOORD-NEDERLAND","Groningen","Overig Groningen","",""
"NL111","NL111","European Union","Netherlands","NOORD-NEDERLAND","Groningen","Oost-Groningen","",""
"NL112","NL112","European Union","Netherlands","NOORD-NEDERLAND","Groningen","Delfzijl en omgeving","",""
"NL123","NL123","European Union","Netherlands","NOORD-NEDERLAND","Friesland (NL)","Zuidoost-Friesland","",""
"NL122","NL122","European Union","Netherlands","NOORD-NEDERLAND","Friesland (NL)","Zuidwest-Friesland","",""
"NL121","NL121","European Union","Netherlands","NOORD-NEDERLAND","Friesland (NL)","Noord-Friesland","",""
"NL131","NL131","European Union","Netherlands","NOORD-NEDERLAND","Drenthe","Noord-Drenthe","",""
"NL132","NL132","European Union","Netherlands","NOORD-NEDERLAND","Drenthe","Zuidoost-Drenthe","",""
"NL133","NL133","European Union","Netherlands","NOORD-NEDERLAND","Drenthe","Zuidwest-Drenthe","",""
"NL211","NL211","European Union","Netherlands","OOST-NEDERLAND","Overijssel","Noord-Overijssel","",""
"NL212","NL212","European Union","Netherlands","OOST-NEDERLAND","Overijssel","Zuidwest-Overijssel","",""
"NL213","NL213","European Union","Netherlands","OOST-NEDERLAND","Overijssel","Twente","",""
"NL221","NL221","European Union","Netherlands","OOST-NEDERLAND","Gelderland","Veluwe","",""
"NL224","NL224","European Union","Netherlands","OOST-NEDERLAND","Gelderland","Zuidwest-Gelderland","",""
"NL226","NL226","European Union","Netherlands","OOST-NEDERLAND","Gelderland","Arnhem/Nijmegen","",""
"NL225","NL225","European Union","Netherlands","OOST-NEDERLAND","Gelderland","Achterhoek","",""
"NL230","NL230","European Union","Netherlands","OOST-NEDERLAND","Flevoland","Flevoland","",""
"NL310","NL310","European Union","Netherlands","WEST-NEDERLAND","Utrecht","Utrecht","",""
"NL324","NL324","European Union","Netherlands","WEST-NEDERLAND","Noord-Holland","Agglomeratie Haarlem","",""
"NL325","NL325","European Union","Netherlands","WEST-NEDERLAND","Noord-Holland","Zaanstreek","",""
"NL326","NL326","European Union","Netherlands","WEST-NEDERLAND","Noord-Holland","Groot-Amsterdam","",""
"NL323","NL323","European Union","Netherlands","WEST-NEDERLAND","Noord-Holland","IJmond","",""
"NL321","NL321","European Union","Netherlands","WEST-NEDERLAND","Noord-Holland","Kop van Noord-Holland","",""
"NL327","NL327","European Union","Netherlands","WEST-NEDERLAND","Noord-Holland","Het Gooi en Vechtstreek","",""
"NL322","NL322","European Union","Netherlands","WEST-NEDERLAND","Noord-Holland","Alkmaar en omgeving","",""
"NL332","NL332","European Union","Netherlands","WEST-NEDERLAND","Zuid-Holland","Agglomeratie 's-Gravenhage","",""
"NL333","NL333","European Union","Netherlands","WEST-NEDERLAND","Zuid-Holland","Delft en Westland","",""
"NL335","NL335","European Union","Netherlands","WEST-NEDERLAND","Zuid-Holland","Groot-Rijnmond","",""
"NL336","NL336","European Union","Netherlands","WEST-NEDERLAND","Zuid-Holland","Zuidoost-Zuid-Holland","",""
"NL331","NL331","European Union","Netherlands","WEST-NEDERLAND","Zuid-Holland","Agglomeratie Leiden en Bollenstreek","",""
"NL334","NL334","European Union","Netherlands","WEST-NEDERLAND","Zuid-Holland","Oost-Zuid-Holland","",""
"NL341","NL341","European Union","Netherlands","WEST-NEDERLAND","Zeeland","Zeeuwsch-Vlaanderen","",""
"NL342","NL342","European Union","Netherlands","WEST-NEDERLAND","Zeeland","Overig Zeeland","",""
"NL412","NL412","European Union","Netherlands","ZUID-NEDERLAND","Noord-Brabant","Midden-Noord-Brabant","",""
"NL411","NL411","European Union","Netherlands","ZUID-NEDERLAND","Noord-Brabant","West-Noord-Brabant","",""
"NL413","NL413","European Union","Netherlands","ZUID-NEDERLAND","Noord-Brabant","Noordoost-Noord-Brabant","",""
"NL414","NL414","European Union","Netherlands","ZUID-NEDERLAND","Noord-Brabant","Zuidoost-Noord-Brabant","",""
"NL422","NL422","European Union","Netherlands","ZUID-NEDERLAND","Limburg (NL)","Midden-Limburg","",""
"NL423","NL423","European Union","Netherlands","ZUID-NEDERLAND","Limburg (NL)","Zuid-Limburg","",""
"NL421","NL421","European Union","Netherlands","ZUID-NEDERLAND","Limburg (NL)","Noord-Limburg","",""
"NLZZZ","NLZZZ","European Union","Netherlands","EXTRA-REGIO","Extra-Regio","Extra-Regio","",""
"PL113","PL113","European Union","Poland","REGION CENTRALNY","Łódzkie","Miasto Łódź","",""
"PL114","PL114","European Union","Poland","REGION CENTRALNY","Łódzkie","Łódzki","",""
"PL116","PL116","European Union","Poland","REGION CENTRALNY","Łódzkie","Sieradzki","",""
"PL117","PL117","European Union","Poland","REGION CENTRALNY","Łódzkie","Skierniewicki","",""
"PL115","PL115","European Union","Poland","REGION CENTRALNY","Łódzkie","Piotrkowski","",""
"PL127","PL127","European Union","Poland","REGION CENTRALNY","Mazowieckie","Miasto Warszawa","",""
"PL129","PL129","European Union","Poland","REGION CENTRALNY","Mazowieckie","Warszawski-wschodni","",""
"PL12A","PL12A","European Union","Poland","REGION CENTRALNY","Mazowieckie","Warszawski-zachodni","",""
"PL128","PL128","European Union","Poland","REGION CENTRALNY","Mazowieckie","Radomski","",""
"PL122","PL122","European Union","Poland","REGION CENTRALNY","Mazowieckie","Ostrołęcko-siedlecki","",""
"PL121","PL121","European Union","Poland","REGION CENTRALNY","Mazowieckie","Ciechanowsko-płocki","",""
"PL213","PL213","European Union","Poland","REGION POŁUDNIOWY","Małopolskie","Miasto Kraków","",""
"PL214","PL214","European Union","Poland","REGION POŁUDNIOWY","Małopolskie","Krakowski","",""
"PL215","PL215","European Union","Poland","REGION POŁUDNIOWY","Małopolskie","Nowosądecki","",""
"PL216","PL216","European Union","Poland","REGION POŁUDNIOWY","Małopolskie","Oświęcimski","",""
"PL217","PL217","European Union","Poland","REGION POŁUDNIOWY","Małopolskie","Tarnowski","",""
"PL22C","PL22C","European Union","Poland","REGION POŁUDNIOWY","Śląskie","Tyski","",""
"PL224","PL224","European Union","Poland","REGION POŁUDNIOWY","Śląskie","Częstochowski","",""
"PL22B","PL22B","European Union","Poland","REGION POŁUDNIOWY","Śląskie","Sosnowiecki","",""
"PL22A","PL22A","European Union","Poland","REGION POŁUDNIOWY","Śląskie","Katowicki","",""
"PL225","PL225","European Union","Poland","REGION POŁUDNIOWY","Śląskie","Bielski","",""
"PL227","PL227","European Union","Poland","REGION POŁUDNIOWY","Śląskie","Rybnicki","",""
"PL228","PL228","European Union","Poland","REGION POŁUDNIOWY","Śląskie","Bytomski","",""
"PL229","PL229","European Union","Poland","REGION POŁUDNIOWY","Śląskie","Gliwicki","",""
"PL312","PL312","European Union","Poland","REGION WSCHODNI","Lubelskie","Chełmsko-zamojski","",""
"PL314","PL314","European Union","Poland","REGION WSCHODNI","Lubelskie","Lubelski","",""
"PL315","PL315","European Union","Poland","REGION WSCHODNI","Lubelskie","Puławski","",""
"PL311","PL311","European Union","Poland","REGION WSCHODNI","Lubelskie","Bialski","",""
"PL323","PL323","European Union","Poland","REGION WSCHODNI","Podkarpackie","Krośnieński","",""
"PL324","PL324","European Union","Poland","REGION WSCHODNI","Podkarpackie","Przemyski","",""
"PL325","PL325","European Union","Poland","REGION WSCHODNI","Podkarpackie","Rzeszowski","",""
"PL326","PL326","European Union","Poland","REGION WSCHODNI","Podkarpackie","Tarnobrzeski","",""
"PL331","PL331","European Union","Poland","REGION WSCHODNI","Świętokrzyskie","Kielecki","",""
"PL332","PL332","European Union","Poland","REGION WSCHODNI","Świętokrzyskie","Sandomiersko-jędrzejowski","",""
"PL345","PL345","European Union","Poland","REGION WSCHODNI","Podlaskie","Suwalski","",""
"PL344","PL344","European Union","Poland","REGION WSCHODNI","Podlaskie","Łomżyński","",""
"PL343","PL343","European Union","Poland","REGION WSCHODNI","Podlaskie","Białostocki","",""
"PL414","PL414","European Union","Poland","REGION PÓŁNOCNO-ZACHODNI","Wielkopolskie","Koniński","",""
"PL418","PL418","European Union","Poland","REGION PÓŁNOCNO-ZACHODNI","Wielkopolskie","Poznański","",""
"PL415","PL415","European Union","Poland","REGION PÓŁNOCNO-ZACHODNI","Wielkopolskie","Miasto Poznań","",""
"PL416","PL416","European Union","Poland","REGION PÓŁNOCNO-ZACHODNI","Wielkopolskie","Kaliski","",""
"PL411","PL411","European Union","Poland","REGION PÓŁNOCNO-ZACHODNI","Wielkopolskie","Pilski","",""
"PL417","PL417","European Union","Poland","REGION PÓŁNOCNO-ZACHODNI","Wielkopolskie","Leszczyński","",""
"PL425","PL425","European Union","Poland","REGION PÓŁNOCNO-ZACHODNI","Zachodniopomorskie","Szczeciński","",""
"PL422","PL422","European Union","Poland","REGION PÓŁNOCNO-ZACHODNI","Zachodniopomorskie","Koszaliński","",""
"PL423","PL423","European Union","Poland","REGION PÓŁNOCNO-ZACHODNI","Zachodniopomorskie","Stargardzki","",""
"PL424","PL424","European Union","Poland","REGION PÓŁNOCNO-ZACHODNI","Zachodniopomorskie","Miasto Szczecin","",""
"PL431","PL431","European Union","Poland","REGION PÓŁNOCNO-ZACHODNI","Lubuskie","Gorzowski","",""
"PL432","PL432","European Union","Poland","REGION PÓŁNOCNO-ZACHODNI","Lubuskie","Zielonogórski","",""
"PL514","PL514","European Union","Poland","REGION POŁUDNIOWO-ZACHODNI","Dolnośląskie","Miasto Wrocław","",""
"PL515","PL515","European Union","Poland","REGION POŁUDNIOWO-ZACHODNI","Dolnośląskie","Jeleniogórski","",""
"PL516","PL516","European Union","Poland","REGION POŁUDNIOWO-ZACHODNI","Dolnośląskie","Legnicko-Głogowski","",""
"PL518","PL518","European Union","Poland","REGION POŁUDNIOWO-ZACHODNI","Dolnośląskie","Wrocławski","",""
"PL517","PL517","European Union","Poland","REGION POŁUDNIOWO-ZACHODNI","Dolnośląskie","Wałbrzyski","",""
"PL521","PL521","European Union","Poland","REGION POŁUDNIOWO-ZACHODNI","Opolskie","Nyski","",""
"PL522","PL522","European Union","Poland","REGION POŁUDNIOWO-ZACHODNI","Opolskie","Opolski","",""
"PL613","PL613","European Union","Poland","REGION PÓŁNOCNY","Kujawsko-Pomorskie","Bydgosko-Toruński","",""
"PL615","PL615","European Union","Poland","REGION PÓŁNOCNY","Kujawsko-Pomorskie","Włocławski","",""
"PL614","PL614","European Union","Poland","REGION PÓŁNOCNY","Kujawsko-Pomorskie","Grudziądzki","",""
"PL622","PL622","European Union","Poland","REGION PÓŁNOCNY","Warmińsko-Mazurskie","Olsztyński","",""
"PL621","PL621","European Union","Poland","REGION PÓŁNOCNY","Warmińsko-Mazurskie","Elbląski","",""
"PL623","PL623","European Union","Poland","REGION PÓŁNOCNY","Warmińsko-Mazurskie","Ełcki","",""
"PL633","PL633","European Union","Poland","REGION PÓŁNOCNY","Pomorskie","Trójmiejski","",""
"PL634","PL634","European Union","Poland","REGION PÓŁNOCNY","Pomorskie","Gdański","",""
"PL631","PL631","European Union","Poland","REGION PÓŁNOCNY","Pomorskie","Słupski","",""
"PL635","PL635","European Union","Poland","REGION PÓŁNOCNY","Pomorskie","Starogardzki","",""
"PLZZZ","PLZZZ","European Union","Poland","EXTRA-REGIO","Extra-Regio","Extra-Regio","",""
"PT111","PT111","European Union","Portugal ","CONTINENTE","Norte","Minho-Lima","",""
"PT112","PT112","European Union","Portugal ","CONTINENTE","Norte","Cávado","",""
"PT115","PT115","European Union","Portugal ","CONTINENTE","Norte","Tâmega","",""
"PT113","PT113","European Union","Portugal ","CONTINENTE","Norte","Ave","",""
"PT114","PT114","European Union","Portugal ","CONTINENTE","Norte","Grande Porto","",""
"PT118","PT118","European Union","Portugal ","CONTINENTE","Norte","Alto Trás-os-Montes","",""
"PT116","PT116","European Union","Portugal ","CONTINENTE","Norte","Entre Douro e Vouga","",""
"PT117","PT117","European Union","Portugal ","CONTINENTE","Norte","Douro","",""
"PT150","PT150","European Union","Portugal ","CONTINENTE","Algarve","Algarve","",""
"PT162","PT162","European Union","Portugal ","CONTINENTE","Centro (P)","Baixo Mondego","",""
"PT163","PT163","European Union","Portugal ","CONTINENTE","Centro (P)","Pinhal Litoral","",""
"PT164","PT164","European Union","Portugal ","CONTINENTE","Centro (P)","Pinhal Interior Norte","",""
"PT166","PT166","European Union","Portugal ","CONTINENTE","Centro (P)","Pinhal Interior Sul","",""
"PT169","PT169","European Union","Portugal ","CONTINENTE","Centro (P)","Beira Interior Sul","",""
"PT167","PT167","European Union","Portugal ","CONTINENTE","Centro (P)","Serra da Estrela","",""
"PT165","PT165","European Union","Portugal ","CONTINENTE","Centro (P)","Dâo-Lafôes","",""
"PT161","PT161","European Union","Portugal ","CONTINENTE","Centro (P)","Baixo Vouga","",""
"PT16A","PT16A","European Union","Portugal ","CONTINENTE","Centro (P)","Cova da Beira","",""
"PT16B","PT16B","European Union","Portugal ","CONTINENTE","Centro (P)","Oeste","",""
"PT168","PT168","European Union","Portugal ","CONTINENTE","Centro (P)","Beira Interior Norte","",""
"PT16C","PT16C","European Union","Portugal ","CONTINENTE","Centro (P)","Médio Tejo","",""
"PT171","PT171","European Union","Portugal ","CONTINENTE","Lisboa","Grande Lisboa","",""
"PT172","PT172","European Union","Portugal ","CONTINENTE","Lisboa","Península de Setúbal","",""
"PT181","PT181","European Union","Portugal ","CONTINENTE","Alentejo","Alentejo Litoral","",""
"PT184","PT184","European Union","Portugal ","CONTINENTE","Alentejo","Baixo Alentejo","",""
"PT185","PT185","European Union","Portugal ","CONTINENTE","Alentejo","Lezíria do Tejo","",""
"PT182","PT182","European Union","Portugal ","CONTINENTE","Alentejo","Alto Alentejo","",""
"PT183","PT183","European Union","Portugal ","CONTINENTE","Alentejo","Alentejo Central","",""
"PT200","PT200","European Union","Portugal ","Região Autónoma dos AÇORES","Região Autónoma dos Açores","Região Autónoma dos Açores","",""
"PT300","PT300","European Union","Portugal ","Região Autónoma da MADEIRA","Região Autónoma da Madeira","Região Autónoma da Madeira","",""
"PTZZZ","PTZZZ","European Union","Portugal ","EXTRA-REGIO","Extra-Regio","Extra-Regio","",""
"RO115","RO115","European Union","Romania","Macroregiunea unu","Nord-Vest","Satu Mare","",""
"RO116","RO116","European Union","Romania","Macroregiunea unu","Nord-Vest","Sălaj","",""
"RO113","RO113","European Union","Romania","Macroregiunea unu","Nord-Vest","Cluj","",""
"RO114","RO114","European Union","Romania","Macroregiunea unu","Nord-Vest","Maramureş","",""
"RO111","RO111","European Union","Romania","Macroregiunea unu","Nord-Vest","Bihor","",""
"RO112","RO112","European Union","Romania","Macroregiunea unu","Nord-Vest","Bistriţa-Năsăud","",""
"RO124","RO124","European Union","Romania","Macroregiunea unu","Centru","Harghita","",""
"RO121","RO121","European Union","Romania","Macroregiunea unu","Centru","Alba","",""
"RO122","RO122","European Union","Romania","Macroregiunea unu","Centru","Braşov","",""
"RO123","RO123","European Union","Romania","Macroregiunea unu","Centru","Covasna","",""
"RO125","RO125","European Union","Romania","Macroregiunea unu","Centru","Mureş","",""
"RO126","RO126","European Union","Romania","Macroregiunea unu","Centru","Sibiu","",""
"RO211","RO211","European Union","Romania","Macroregiunea doi","Nord-Est","Bacău","",""
"RO216","RO216","European Union","Romania","Macroregiunea doi","Nord-Est","Vaslui","",""
"RO212","RO212","European Union","Romania","Macroregiunea doi","Nord-Est","Botoşani","",""
"RO213","RO213","European Union","Romania","Macroregiunea doi","Nord-Est","Iaşi","",""
"RO215","RO215","European Union","Romania","Macroregiunea doi","Nord-Est","Suceava","",""
"RO214","RO214","European Union","Romania","Macroregiunea doi","Nord-Est","Neamţ","",""
"RO224","RO224","European Union","Romania","Macroregiunea doi","Sud-Est","Galaţi","",""
"RO221","RO221","European Union","Romania","Macroregiunea doi","Sud-Est","Brăila","",""
"RO226","RO226","European Union","Romania","Macroregiunea doi","Sud-Est","Vrancea","",""
"RO225","RO225","European Union","Romania","Macroregiunea doi","Sud-Est","Tulcea","",""
"RO222","RO222","European Union","Romania","Macroregiunea doi","Sud-Est","Buzău","",""
"RO223","RO223","European Union","Romania","Macroregiunea doi","Sud-Est","Constanţa","",""
"RO312","RO312","European Union","Romania","Macroregiunea trei","Sud - Muntenia","Călăraşi","",""
"RO311","RO311","European Union","Romania","Macroregiunea trei","Sud - Muntenia","Argeş","",""
"RO317","RO317","European Union","Romania","Macroregiunea trei","Sud - Muntenia","Teleorman","",""
"RO316","RO316","European Union","Romania","Macroregiunea trei","Sud - Muntenia","Prahova","",""
"RO313","RO313","European Union","Romania","Macroregiunea trei","Sud - Muntenia","Dâmboviţa","",""
"RO314","RO314","European Union","Romania","Macroregiunea trei","Sud - Muntenia","Giurgiu","",""
"RO315","RO315","European Union","Romania","Macroregiunea trei","Sud - Muntenia","Ialomiţa","",""
"RO321","RO321","European Union","Romania","Macroregiunea trei","Bucureşti - Ilfov","Bucureşti","",""
"RO322","RO322","European Union","Romania","Macroregiunea trei","Bucureşti - Ilfov","Ilfov","",""
"RO412","RO412","European Union","Romania","Macroregiunea patru","Sud-Vest Oltenia","Gorj","",""
"RO413","RO413","European Union","Romania","Macroregiunea patru","Sud-Vest Oltenia","Mehedinţi","",""
"RO414","RO414","European Union","Romania","Macroregiunea patru","Sud-Vest Oltenia","Olt","",""
"RO415","RO415","European Union","Romania","Macroregiunea patru","Sud-Vest Oltenia","Vâlcea","",""
"RO411","RO411","European Union","Romania","Macroregiunea patru","Sud-Vest Oltenia","Dolj","",""
"RO422","RO422","European Union","Romania","Macroregiunea patru","Vest","Caraş-Severin","",""
"RO423","RO423","European Union","Romania","Macroregiunea patru","Vest","Hunedoara","",""
"RO421","RO421","European Union","Romania","Macroregiunea patru","Vest","Arad","",""
"RO424","RO424","European Union","Romania","Macroregiunea patru","Vest","Timiş","",""
"ROZZZ","ROZZZ","European Union","Romania","EXTRA-REGIO","Extra-Regio","Extra-Regio","",""
"SE110","SE110","European Union","Sweden","Östra Sverige","Stockholm","Stockholms län","",""
"SE121","SE121","European Union","Sweden","Östra Sverige","Östra Mellansverige","Uppsala län","",""
"SE125","SE125","European Union","Sweden","Östra Sverige","Östra Mellansverige","Västmanlands län","",""
"SE124","SE124","European Union","Sweden","Östra Sverige","Östra Mellansverige","Örebro län","",""
"SE122","SE122","European Union","Sweden","Östra Sverige","Östra Mellansverige","Södermanlands län","",""
"SE123","SE123","European Union","Sweden","Östra Sverige","Östra Mellansverige","Östergötlands län","",""
"SE212","SE212","European Union","Sweden","Södra Sverige","Småland med öarna","Kronobergs län","",""
"SE213","SE213","European Union","Sweden","Södra Sverige","Småland med öarna","Kalmar län","",""
"SE211","SE211","European Union","Sweden","Södra Sverige","Småland med öarna","Jönköpings län","",""
"SE214","SE214","European Union","Sweden","Södra Sverige","Småland med öarna","Gotlands län","",""
"SE224","SE224","European Union","Sweden","Södra Sverige","Sydsverige","Skåne län","",""
"SE221","SE221","European Union","Sweden","Södra Sverige","Sydsverige","Blekinge län","",""
"SE232","SE232","European Union","Sweden","Södra Sverige","Västsverige","Västra Götalands län","",""
"SE231","SE231","European Union","Sweden","Södra Sverige","Västsverige","Hallands län","",""
"SE311","SE311","European Union","Sweden","Norra Sverige","Norra Mellansverige","Värmlands län","",""
"SE312","SE312","European Union","Sweden","Norra Sverige","Norra Mellansverige","Dalarnas län","",""
"SE313","SE313","European Union","Sweden","Norra Sverige","Norra Mellansverige","Gävleborgs län","",""
"SE321","SE321","European Union","Sweden","Norra Sverige","Mellersta Norrland","Västernorrlands län","",""
"SE322","SE322","European Union","Sweden","Norra Sverige","Mellersta Norrland","Jämtlands län","",""
"SE331","SE331","European Union","Sweden","Norra Sverige","Övre Norrland","Västerbottens län","",""
"SE332","SE332","European Union","Sweden","Norra Sverige","Övre Norrland","Norrbottens län","",""
"SEZZZ","SEZZZ","European Union","Sweden","EXTRA-REGIO","Extra-Regio","Extra-Regio","",""
"SI014","SI014","European Union","Slovenia ","SLOVENIJA","Vzhodna Slovenija","Savinjska","",""
"SI016","SI016","European Union","Slovenia ","SLOVENIJA","Vzhodna Slovenija","Spodnjeposavska","",""
"SI017","SI017","European Union","Slovenia ","SLOVENIJA","Vzhodna Slovenija","Jugovzhodna Slovenija","",""
"SI018","SI018","European Union","Slovenia ","SLOVENIJA","Vzhodna Slovenija","Notranjsko-kraška","",""
"SI015","SI015","European Union","Slovenia ","SLOVENIJA","Vzhodna Slovenija","Zasavska","",""
"SI011","SI011","European Union","Slovenia ","SLOVENIJA","Vzhodna Slovenija","Pomurska","",""
"SI012","SI012","European Union","Slovenia ","SLOVENIJA","Vzhodna Slovenija","Podravska","",""
"SI013","SI013","European Union","Slovenia ","SLOVENIJA","Vzhodna Slovenija","Koroška","",""
"SI023","SI023","European Union","Slovenia ","SLOVENIJA","Zahodna Slovenija","Goriška","",""
"SI024","SI024","European Union","Slovenia ","SLOVENIJA","Zahodna Slovenija","Obalno-kraška","",""
"SI022","SI022","European Union","Slovenia ","SLOVENIJA","Zahodna Slovenija","Gorenjska","",""
"SI021","SI021","European Union","Slovenia ","SLOVENIJA","Zahodna Slovenija","Osrednjeslovenska","",""
"SIZZZ","SIZZZ","European Union","Slovenia ","EXTRA-REGIO","Extra-Regio","Extra-Regio","",""
"SK010","SK010","European Union","Slovakia","SLOVENSKÁ REPUBLIKA","Bratislavský kraj","Bratislavský kraj","",""
"SK023","SK023","European Union","Slovakia","SLOVENSKÁ REPUBLIKA","Západné Slovensko","Nitriansky kraj","",""
"SK021","SK021","European Union","Slovakia","SLOVENSKÁ REPUBLIKA","Západné Slovensko","Trnavský kraj","",""
"SK022","SK022","European Union","Slovakia","SLOVENSKÁ REPUBLIKA","Západné Slovensko","Trenčiansky kraj","",""
"SK031","SK031","European Union","Slovakia","SLOVENSKÁ REPUBLIKA","Stredné Slovensko","Žilinský kraj","",""
"SK032","SK032","European Union","Slovakia","SLOVENSKÁ REPUBLIKA","Stredné Slovensko","Banskobystrický kraj","",""
"SK041","SK041","European Union","Slovakia","SLOVENSKÁ REPUBLIKA","Východné Slovensko","Prešovský kraj","",""
"SK042","SK042","European Union","Slovakia","SLOVENSKÁ REPUBLIKA","Východné Slovensko","Košický kraj","",""
"SKZZZ","SKZZZ","European Union","Slovakia","EXTRA-REGIO","Extra-Regio","Extra-Regio","",""
"UKC11","UKC11","European Union","United Kingdom ","NORTH EAST (ENGLAND)","Tees Valley and Durham","Hartlepool and Stockton-on-Tees","",""
"UKC12","UKC12","European Union","United Kingdom ","NORTH EAST (ENGLAND)","Tees Valley and Durham","South Teesside","",""
"UKC13","UKC13","European Union","United Kingdom ","NORTH EAST (ENGLAND)","Tees Valley and Durham","Darlington","",""
"UKC14","UKC14","European Union","United Kingdom ","NORTH EAST (ENGLAND)","Tees Valley and Durham","Durham CC","",""
"UKC23","UKC23","European Union","United Kingdom ","NORTH EAST (ENGLAND)","Northumberland and Tyne and Wear","Sunderland","",""
"UKC22","UKC22","European Union","United Kingdom ","NORTH EAST (ENGLAND)","Northumberland and Tyne and Wear","Tyneside","",""
"UKC21","UKC21","European Union","United Kingdom ","NORTH EAST (ENGLAND)","Northumberland and Tyne and Wear","Northumberland","",""
"UKD12","UKD12","European Union","United Kingdom ","NORTH WEST (ENGLAND)","Cumbria","East Cumbria","",""
"UKD11","UKD11","European Union","United Kingdom ","NORTH WEST (ENGLAND)","Cumbria","West Cumbria","",""
"UKD22","UKD22","European Union","United Kingdom ","NORTH WEST (ENGLAND)","Cheshire","Cheshire CC","",""
"UKD21","UKD21","European Union","United Kingdom ","NORTH WEST (ENGLAND)","Cheshire","Halton and Warrington","",""
"UKD31","UKD31","European Union","United Kingdom ","NORTH WEST (ENGLAND)","Greater Manchester","Greater Manchester South","",""
"UKD32","UKD32","European Union","United Kingdom ","NORTH WEST (ENGLAND)","Greater Manchester","Greater Manchester North","",""
"UKD43","UKD43","European Union","United Kingdom ","NORTH WEST (ENGLAND)","Lancashire","Lancashire CC","",""
"UKD42","UKD42","European Union","United Kingdom ","NORTH WEST (ENGLAND)","Lancashire","Blackpool","",""
"UKD41","UKD41","European Union","United Kingdom ","NORTH WEST (ENGLAND)","Lancashire","Blackburn with Darwen","",""
"UKD53","UKD53","European Union","United Kingdom ","NORTH WEST (ENGLAND)","Merseyside","Sefton","",""
"UKD54","UKD54","European Union","United Kingdom ","NORTH WEST (ENGLAND)","Merseyside","Wirral","",""
"UKD52","UKD52","European Union","United Kingdom ","NORTH WEST (ENGLAND)","Merseyside","Liverpool","",""
"UKD51","UKD51","European Union","United Kingdom ","NORTH WEST (ENGLAND)","Merseyside","East Merseyside","",""
"UKE11","UKE11","European Union","United Kingdom ","YORKSHIRE AND THE HUMBER","East Yorkshire and Northern Lincolnshire","Kingston upon Hull, City of","",""
"UKE12","UKE12","European Union","United Kingdom ","YORKSHIRE AND THE HUMBER","East Yorkshire and Northern Lincolnshire","East Riding of Yorkshire","",""
"UKE13","UKE13","European Union","United Kingdom ","YORKSHIRE AND THE HUMBER","East Yorkshire and Northern Lincolnshire","North and North East Lincolnshire","",""
"UKE21","UKE21","European Union","United Kingdom ","YORKSHIRE AND THE HUMBER","North Yorkshire","York","",""
"UKE22","UKE22","European Union","United Kingdom ","YORKSHIRE AND THE HUMBER","North Yorkshire","North Yorkshire CC","",""
"UKE32","UKE32","European Union","United Kingdom ","YORKSHIRE AND THE HUMBER","South Yorkshire","Sheffield","",""
"UKE31","UKE31","European Union","United Kingdom ","YORKSHIRE AND THE HUMBER","South Yorkshire","Barnsley, Doncaster and Rotherham","",""
"UKE41","UKE41","European Union","United Kingdom ","YORKSHIRE AND THE HUMBER","West Yorkshire","Bradford","",""
"UKE42","UKE42","European Union","United Kingdom ","YORKSHIRE AND THE HUMBER","West Yorkshire","Leeds","",""
"UKE43","UKE43","European Union","United Kingdom ","YORKSHIRE AND THE HUMBER","West Yorkshire","Calderdale, Kirklees and Wakefield","",""
"UKF11","UKF11","European Union","United Kingdom ","EAST MIDLANDS (ENGLAND)","Derbyshire and Nottinghamshire","Derby","",""
"UKF12","UKF12","European Union","United Kingdom ","EAST MIDLANDS (ENGLAND)","Derbyshire and Nottinghamshire","East Derbyshire","",""
"UKF14","UKF14","European Union","United Kingdom ","EAST MIDLANDS (ENGLAND)","Derbyshire and Nottinghamshire","Nottingham","",""
"UKF15","UKF15","European Union","United Kingdom ","EAST MIDLANDS (ENGLAND)","Derbyshire and Nottinghamshire","North Nottinghamshire","",""
"UKF16","UKF16","European Union","United Kingdom ","EAST MIDLANDS (ENGLAND)","Derbyshire and Nottinghamshire","South Nottinghamshire","",""
"UKF13","UKF13","European Union","United Kingdom ","EAST MIDLANDS (ENGLAND)","Derbyshire and Nottinghamshire","South and West Derbyshire","",""
"UKF22","UKF22","European Union","United Kingdom ","EAST MIDLANDS (ENGLAND)","Leicestershire, Rutland and Northamptonshire","Leicestershire CC and Rutland","",""
"UKF23","UKF23","European Union","United Kingdom ","EAST MIDLANDS (ENGLAND)","Leicestershire, Rutland and Northamptonshire","Northamptonshire","",""
"UKF21","UKF21","European Union","United Kingdom ","EAST MIDLANDS (ENGLAND)","Leicestershire, Rutland and Northamptonshire","Leicester","",""
"UKF30","UKF30","European Union","United Kingdom ","EAST MIDLANDS (ENGLAND)","Lincolnshire","Lincolnshire","",""
"UKG12","UKG12","European Union","United Kingdom ","WEST MIDLANDS (ENGLAND)","Herefordshire, Worcestershire and Warwickshire","Worcestershire","",""
"UKG13","UKG13","European Union","United Kingdom ","WEST MIDLANDS (ENGLAND)","Herefordshire, Worcestershire and Warwickshire","Warwickshire","",""
"UKG11","UKG11","European Union","United Kingdom ","WEST MIDLANDS (ENGLAND)","Herefordshire, Worcestershire and Warwickshire","Herefordshire, County of","",""
"UKG23","UKG23","European Union","United Kingdom ","WEST MIDLANDS (ENGLAND)","Shropshire and Staffordshire","Stoke-on-Trent","",""
"UKG22","UKG22","European Union","United Kingdom ","WEST MIDLANDS (ENGLAND)","Shropshire and Staffordshire","Shropshire CC","",""
"UKG24","UKG24","European Union","United Kingdom ","WEST MIDLANDS (ENGLAND)","Shropshire and Staffordshire","Staffordshire CC","",""
"UKG21","UKG21","European Union","United Kingdom ","WEST MIDLANDS (ENGLAND)","Shropshire and Staffordshire","Telford and Wrekin","",""
"UKG32","UKG32","European Union","United Kingdom ","WEST MIDLANDS (ENGLAND)","West Midlands","Solihull","",""
"UKG33","UKG33","European Union","United Kingdom ","WEST MIDLANDS (ENGLAND)","West Midlands","Coventry","",""
"UKG31","UKG31","European Union","United Kingdom ","WEST MIDLANDS (ENGLAND)","West Midlands","Birmingham","",""
"UKG34","UKG34","European Union","United Kingdom ","WEST MIDLANDS (ENGLAND)","West Midlands","Dudley and Sandwell","",""
"UKG35","UKG35","European Union","United Kingdom ","WEST MIDLANDS (ENGLAND)","West Midlands","Walsall and Wolverhampton","",""
"UKH12","UKH12","European Union","United Kingdom ","EAST OF ENGLAND","East Anglia","Cambridgeshire CC","",""
"UKH11","UKH11","European Union","United Kingdom ","EAST OF ENGLAND","East Anglia","Peterborough","",""
"UKH14","UKH14","European Union","United Kingdom ","EAST OF ENGLAND","East Anglia","Suffolk","",""
"UKH13","UKH13","European Union","United Kingdom ","EAST OF ENGLAND","East Anglia","Norfolk","",""
"UKH23","UKH23","European Union","United Kingdom ","EAST OF ENGLAND","Bedfordshire and Hertfordshire","Hertfordshire","",""
"UKH22","UKH22","European Union","United Kingdom ","EAST OF ENGLAND","Bedfordshire and Hertfordshire","Bedfordshire CC","",""
"UKH21","UKH21","European Union","United Kingdom ","EAST OF ENGLAND","Bedfordshire and Hertfordshire","Luton","",""
"UKH31","UKH31","European Union","United Kingdom ","EAST OF ENGLAND","Essex","Southend-on-Sea","",""
"UKH32","UKH32","European Union","United Kingdom ","EAST OF ENGLAND","Essex","Thurrock","",""
"UKH33","UKH33","European Union","United Kingdom ","EAST OF ENGLAND","Essex","Essex CC","",""
"UKI11","UKI11","European Union","United Kingdom ","LONDON","Inner London","Inner London - West","",""
"UKI12","UKI12","European Union","United Kingdom ","LONDON","Inner London","Inner London - East","",""
"UKI21","UKI21","European Union","United Kingdom ","LONDON","Outer London","Outer London - East and North East","",""
"UKI22","UKI22","European Union","United Kingdom ","LONDON","Outer London","Outer London - South","",""
"UKI23","UKI23","European Union","United Kingdom ","LONDON","Outer London","Outer London - West and North West","",""
"UKJ14","UKJ14","European Union","United Kingdom ","SOUTH EAST (ENGLAND)","Berkshire, Buckinghamshire and Oxfordshire","Oxfordshire","",""
"UKJ12","UKJ12","European Union","United Kingdom ","SOUTH EAST (ENGLAND)","Berkshire, Buckinghamshire and Oxfordshire","Milton Keynes","",""
"UKJ13","UKJ13","European Union","United Kingdom ","SOUTH EAST (ENGLAND)","Berkshire, Buckinghamshire and Oxfordshire","Buckinghamshire CC","",""
"UKJ11","UKJ11","European Union","United Kingdom ","SOUTH EAST (ENGLAND)","Berkshire, Buckinghamshire and Oxfordshire","Berkshire","",""
"UKJ22","UKJ22","European Union","United Kingdom ","SOUTH EAST (ENGLAND)","Surrey, East and West Sussex","East Sussex CC","",""
"UKJ23","UKJ23","European Union","United Kingdom ","SOUTH EAST (ENGLAND)","Surrey, East and West Sussex","Surrey","",""
"UKJ24","UKJ24","European Union","United Kingdom ","SOUTH EAST (ENGLAND)","Surrey, East and West Sussex","West Sussex","",""
"UKJ21","UKJ21","European Union","United Kingdom ","SOUTH EAST (ENGLAND)","Surrey, East and West Sussex","Brighton and Hove","",""
"UKJ34","UKJ34","European Union","United Kingdom ","SOUTH EAST (ENGLAND)","Hampshire and Isle of Wight","Isle of Wight","",""
"UKJ31","UKJ31","European Union","United Kingdom ","SOUTH EAST (ENGLAND)","Hampshire and Isle of Wight","Portsmouth","",""
"UKJ32","UKJ32","European Union","United Kingdom ","SOUTH EAST (ENGLAND)","Hampshire and Isle of Wight","Southampton","",""
"UKJ33","UKJ33","European Union","United Kingdom ","SOUTH EAST (ENGLAND)","Hampshire and Isle of Wight","Hampshire CC","",""
"UKJ41","UKJ41","European Union","United Kingdom ","SOUTH EAST (ENGLAND)","Kent","Medway","",""
"UKJ42","UKJ42","European Union","United Kingdom ","SOUTH EAST (ENGLAND)","Kent","Kent CC","",""
"UKK13","UKK13","European Union","United Kingdom ","SOUTH WEST (ENGLAND)","Gloucestershire, Wiltshire and Bristol/Bath area","Gloucestershire","",""
"UKK11","UKK11","European Union","United Kingdom ","SOUTH WEST (ENGLAND)","Gloucestershire, Wiltshire and Bristol/Bath area","Bristol, City of","",""
"UKK12","UKK12","European Union","United Kingdom ","SOUTH WEST (ENGLAND)","Gloucestershire, Wiltshire and Bristol/Bath area","Bath and North East Somerset, North Somerset and South Gloucestershire","",""
"UKK14","UKK14","European Union","United Kingdom ","SOUTH WEST (ENGLAND)","Gloucestershire, Wiltshire and Bristol/Bath area","Swindon","",""
"UKK15","UKK15","European Union","United Kingdom ","SOUTH WEST (ENGLAND)","Gloucestershire, Wiltshire and Bristol/Bath area","Wiltshire CC","",""
"UKK22","UKK22","European Union","United Kingdom ","SOUTH WEST (ENGLAND)","Dorset and Somerset","Dorset CC","",""
"UKK23","UKK23","European Union","United Kingdom ","SOUTH WEST (ENGLAND)","Dorset and Somerset","Somerset","",""
"UKK21","UKK21","European Union","United Kingdom ","SOUTH WEST (ENGLAND)","Dorset and Somerset","Bournemouth and Poole","",""
"UKK30","UKK30","European Union","United Kingdom ","SOUTH WEST (ENGLAND)","Cornwall and Isles of Scilly","Cornwall and Isles of Scilly","",""
"UKK43","UKK43","European Union","United Kingdom ","SOUTH WEST (ENGLAND)","Devon","Devon CC","",""
"UKK41","UKK41","European Union","United Kingdom ","SOUTH WEST (ENGLAND)","Devon","Plymouth","",""
"UKK42","UKK42","European Union","United Kingdom ","SOUTH WEST (ENGLAND)","Devon","Torbay","",""
"UKL11","UKL11","European Union","United Kingdom ","WALES","West Wales and The Valleys","Isle of Anglesey","",""
"UKL17","UKL17","European Union","United Kingdom ","WALES","West Wales and The Valleys","Bridgend and Neath Port Talbot","",""
"UKL18","UKL18","European Union","United Kingdom ","WALES","West Wales and The Valleys","Swansea","",""
"UKL14","UKL14","European Union","United Kingdom ","WALES","West Wales and The Valleys","South West Wales","",""
"UKL15","UKL15","European Union","United Kingdom ","WALES","West Wales and The Valleys","Central Valleys","",""
"UKL12","UKL12","European Union","United Kingdom ","WALES","West Wales and The Valleys","Gwynedd","",""
"UKL13","UKL13","European Union","United Kingdom ","WALES","West Wales and The Valleys","Conwy and Denbighshire","",""
"UKL16","UKL16","European Union","United Kingdom ","WALES","West Wales and The Valleys","Gwent Valleys","",""
"UKL24","UKL24","European Union","United Kingdom ","WALES","East Wales","Powys","",""
"UKL23","UKL23","European Union","United Kingdom ","WALES","East Wales","Flintshire and Wrexham","",""
"UKL21","UKL21","European Union","United Kingdom ","WALES","East Wales","Monmouthshire and Newport","",""
"UKL22","UKL22","European Union","United Kingdom ","WALES","East Wales","Cardiff and Vale of Glamorgan","",""
"UKM22","UKM22","European Union","United Kingdom ","SCOTLAND","Eastern Scotland","Clackmannanshire and Fife","",""
"UKM21","UKM21","European Union","United Kingdom ","SCOTLAND","Eastern Scotland","Angus and Dundee City","",""
"UKM28","UKM28","European Union","United Kingdom ","SCOTLAND","Eastern Scotland","West Lothian","",""
"UKM25","UKM25","European Union","United Kingdom ","SCOTLAND","Eastern Scotland","Edinburgh, City of","",""
"UKM23","UKM23","European Union","United Kingdom ","SCOTLAND","Eastern Scotland","East Lothian and Midlothian","",""
"UKM24","UKM24","European Union","United Kingdom ","SCOTLAND","Eastern Scotland","Scottish Borders","",""
"UKM26","UKM26","European Union","United Kingdom ","SCOTLAND","Eastern Scotland","Falkirk","",""
"UKM27","UKM27","European Union","United Kingdom ","SCOTLAND","Eastern Scotland","Perth & Kinross and Stirling","",""
"UKM32","UKM32","European Union","United Kingdom ","SCOTLAND","South Western Scotland","Dumfries & Galloway","",""
"UKM33","UKM33","European Union","United Kingdom ","SCOTLAND","South Western Scotland","East Ayrshire and North Ayrshire mainland","",""
"UKM36","UKM36","European Union","United Kingdom ","SCOTLAND","South Western Scotland","North Lanarkshire","",""
"UKM37","UKM37","European Union","United Kingdom ","SCOTLAND","South Western Scotland","South Ayrshire","",""
"UKM34","UKM34","European Union","United Kingdom ","SCOTLAND","South Western Scotland","Glasgow City","",""
"UKM35","UKM35","European Union","United Kingdom ","SCOTLAND","South Western Scotland","Inverclyde, East Renfrewshire and Renfrewshire","",""
"UKM31","UKM31","European Union","United Kingdom ","SCOTLAND","South Western Scotland","East Dunbartonshire, West Dunbartonshire and Helensburgh & Lomond","",""
"UKM38","UKM38","European Union","United Kingdom ","SCOTLAND","South Western Scotland","South Lanarkshire","",""
"UKM50","UKM50","European Union","United Kingdom ","SCOTLAND","North Eastern Scotland","Aberdeen City and Aberdeenshire","",""
"UKM66","UKM66","European Union","United Kingdom ","SCOTLAND","Highlands and Islands","Shetland Islands","",""
"UKM61","UKM61","European Union","United Kingdom ","SCOTLAND","Highlands and Islands","Caithness & Sutherland and Ross & Cromarty","",""
"UKM65","UKM65","European Union","United Kingdom ","SCOTLAND","Highlands and Islands","Orkney Islands","",""
"UKM64","UKM64","European Union","United Kingdom ","SCOTLAND","Highlands and Islands","Eilean Siar (Western Isles)","",""
"UKM62","UKM62","European Union","United Kingdom ","SCOTLAND","Highlands and Islands","Inverness & Nairn and Moray, Badenoch & Strathspey","",""
"UKM63","UKM63","European Union","United Kingdom ","SCOTLAND","Highlands and Islands","Lochaber, Skye & Lochalsh, Arran & Cumbrae and Argyll & Bute","",""
"UKN01","UKN01","European Union","United Kingdom ","NORTHERN IRELAND","Northern Ireland","Belfast","",""
"UKN02","UKN02","European Union","United Kingdom ","NORTHERN IRELAND","Northern Ireland","Outer Belfast","",""
"UKN05","UKN05","European Union","United Kingdom ","NORTHERN IRELAND","Northern Ireland","West and South of Northern Ireland","",""
"UKN03","UKN03","European Union","United Kingdom ","NORTHERN IRELAND","Northern Ireland","East of Northern Ireland","",""
"UKN04","UKN04","European Union","United Kingdom ","NORTHERN IRELAND","Northern Ireland","North of Northern Ireland","",""
"UKZZZ","UKZZZ","European Union","United Kingdom ","EXTRA-REGIO","Extra-Regio","Extra-Regio","",""
